<?xml version="1.0" encoding="UTF-8"?>
<kml xmlns="http://www.opengis.net/kml/2.2">
<Document>
  <name>Northern Lights &amp; Polar Bears 2026 — Caravan Itinerary</name>
  <description><![CDATA[31 days, Sep 13 – Oct 13 2026. 1,286 mi / 2,070 km of driving in 8 legs, plus the overnight VIA Rail run Thompson ↔ Churchill. Overnight pins are campground entrances. Built from the caravan itinerary dated September 7, 2026 — <a href="https://snthor-phd.github.io/polar-bears-2026/">snthor-phd.github.io/polar-bears-2026</a>]]></description>
  <Style id="stop"><IconStyle><color>ff648a1c</color><scale>1.1</scale><Icon><href>http://maps.google.com/mapfiles/kml/paddle/grn-blank.png</href></Icon></IconStyle><LabelStyle><scale>0.9</scale></LabelStyle></Style>
  <Style id="start"><IconStyle><color>ff648a1c</color><scale>1.2</scale><Icon><href>http://maps.google.com/mapfiles/kml/paddle/grn-stars.png</href></Icon></IconStyle><LabelStyle><scale>0.9</scale></LabelStyle></Style>
  <Style id="churchill"><IconStyle><color>ff2b8ad9</color><scale>1.3</scale><Icon><href>http://maps.google.com/mapfiles/kml/paddle/orange-stars.png</href></Icon></IconStyle><LabelStyle><scale>0.9</scale></LabelStyle></Style>
  <Style id="poi"><IconStyle><color>ff8f6134</color><scale>0.8</scale><Icon><href>http://maps.google.com/mapfiles/kml/paddle/blu-circle.png</href></Icon></IconStyle><LabelStyle><scale>0.9</scale></LabelStyle></Style>
  <Style id="rail"><IconStyle><color>ffc66c7a</color><scale>0.9</scale><Icon><href>http://maps.google.com/mapfiles/kml/paddle/purple-blank.png</href></Icon></IconStyle><LabelStyle><scale>0.9</scale></LabelStyle></Style>
  <Style id="road"><LineStyle><color>ff648a1c</color><width>4</width></LineStyle></Style>
  <Style id="railline"><LineStyle><color>ccc66c7a</color><width>3</width></LineStyle></Style>
  <Folder><name>Overnight stops (campgrounds)</name>
    <Placemark><name>1. Winnipeg — Town &amp; Country Campground</name><description><![CDATA[<b>Town & Country Campground</b><br>56001 Murdock Rd, Springfield (Winnipeg)<br>Sep 13 – 14 &amp; Oct 9 – 13 · Days 1–2 &amp; 27–31<br>Rendezvous, Meet & Greet, the Winnipeg bus tour and the Welcome Dinner]]></description><styleUrl>#start</styleUrl><Point><coordinates>-96.97784,49.82852,0</coordinates></Point></Placemark>
    <Placemark><name>2. Neepawa — Lions Riverbend Campground</name><description><![CDATA[<b>Lions Riverbend Campground</b><br>Riverbend Park, Neepawa<br>Sep 15 – 18 · Days 3–6<br>Spud Plains Farm, Galbraith Farms, Farmery Estate Brewery, dinner at the Legion]]></description><styleUrl>#stop</styleUrl><Point><coordinates>-99.45479,50.22880,0</coordinates></Point></Placemark>
    <Placemark><name>3. Dauphin — Vermillion Park &amp; Campground</name><description><![CDATA[<b>Vermillion Park & Campground</b><br>2nd Ave NW, Dauphin<br>Sep 19 – 22 · Days 7–10<br>Ukrainian crafts, church & dinner; Dauphin Rail Museum; Riding Mountain National Park]]></description><styleUrl>#stop</styleUrl><Point><coordinates>-100.05300,51.15245,0</coordinates></Point></Placemark>
    <Placemark><name>4. Swan River — Green Acres Campground</name><description><![CDATA[<b>Green Acres Campground</b><br>312 Centennial Dr (Hwy 83A), Swan River<br>Sep 23 – 25 · Days 11–13<br>Spruce Products, the campout, Pretty Valley Honey]]></description><styleUrl>#stop</styleUrl><Point><coordinates>-101.27551,52.10003,0</coordinates></Point></Placemark>
    <Placemark><name>5. The Pas — The Pas Exhibition Grounds</name><description><![CDATA[<b>The Pas Exhibition Grounds</b><br>The Pas — exact entrance not on map services; go by the parkers <i>(pin is the town centre — exact entrance not on map services; go by the parkers)</i><br>Sep 26 – 28 · Days 14–16<br>Opasquia Trails boardwalk, Sam Waller Museum, Round the Bend Farm]]></description><styleUrl>#stop</styleUrl><Point><coordinates>-101.25420,53.82500,0</coordinates></Point></Placemark>
    <Placemark><name>6. Flin Flon — Flin Flon Campground</name><description><![CDATA[<b>Flin Flon Campground</b><br>Tourist Bureau & Campground, Hwy 10A, Flin Flon<br>Sep 29 · Day 17<br>Rotary Wheel campout, Polar Bear Town #6]]></description><styleUrl>#stop</styleUrl><Point><coordinates>-101.83930,54.77184,0</coordinates></Point></Placemark>
    <Placemark><name>7. Thompson — McCreedy Campground</name><description><![CDATA[<b>McCreedy Campground</b><br>Jasper Dr, Thompson<br>Sep 30 – Oct 1 · Oct 7 · Days 18–19 · 25<br>Rigs stay here while you ride the train — community service, Heritage North, then Churchill]]></description><styleUrl>#stop</styleUrl><Point><coordinates>-97.83486,55.75643,0</coordinates></Point></Placemark>
    <Placemark><name>8. Churchill — Tundra Buggy Lodge &amp; Tundra Inn</name><description><![CDATA[<b>Tundra Buggy Lodge & Tundra Inn</b><br>Tundra Inn, 34 Franklin St, Churchill — by VIA Rail<br>Oct 2 – 7 · Days 20–25<br>Polar bears from the Tundra Buggy, two nights on the tundra, dog sledding, the museums]]></description><styleUrl>#churchill</styleUrl><Point><coordinates>-94.17252,58.77061,0</coordinates></Point></Placemark>
    <Placemark><name>9. Grand Rapids — Cook&#x27;s Campground &amp; Cabins</name><description><![CDATA[<b>Cook's Campground & Cabins</b><br>Hwy 6, Grand Rapids<br>Oct 8 · Day 26<br>Overnight on the way home — no restaurants, come prepared]]></description><styleUrl>#stop</styleUrl><Point><coordinates>-99.41593,53.26057,0</coordinates></Point></Placemark>
  </Folder>
  <Folder><name>Venues &amp; day-trips</name>
    <Placemark><name>Spud Plains Farm</name><description><![CDATA[Day 4 · Sep 16<br>Farm tour, carpool from Neepawa (27 mi) <i>(approximate location)</i><br><small>Base: Neepawa</small>]]></description><styleUrl>#poi</styleUrl><Point><coordinates>-99.31400,50.04000,0</coordinates></Point></Placemark>
    <Placemark><name>Farmery Estate Brewery</name><description><![CDATA[Day 6 · Sep 18<br>Brewery tours, Groups A & B<br><small>Base: Neepawa</small>]]></description><styleUrl>#poi</styleUrl><Point><coordinates>-99.47920,50.22849,0</coordinates></Point></Placemark>
    <Placemark><name>Royal Canadian Legion, Neepawa</name><description><![CDATA[Day 6 · Sep 18<br>Catered dinner, 5:30 PM<br><small>Base: Neepawa</small>]]></description><styleUrl>#poi</styleUrl><Point><coordinates>-99.46334,50.22905,0</coordinates></Point></Placemark>
    <Placemark><name>Minnedosa</name><description><![CDATA[Day 5 · Sep 17<br>Optional stop on the way back from Galbraith Farms<br><small>Base: Neepawa</small>]]></description><styleUrl>#poi</styleUrl><Point><coordinates>-99.83852,50.24986,0</coordinates></Point></Placemark>
    <Placemark><name>Super 8 by Wyndham, Dauphin</name><description><![CDATA[Day 8 · Sep 20<br>Pysanky egg writing 1:30 · Ukrainian dinner 5:30 · dancers<br><small>Base: Dauphin</small>]]></description><styleUrl>#poi</styleUrl><Point><coordinates>-100.06496,51.13509,0</coordinates></Point></Placemark>
    <Placemark><name>Ukrainian Catholic Church of the Resurrection</name><description><![CDATA[Day 8 · Sep 20<br>Guided tour, 4:30 PM<br><small>Base: Dauphin</small>]]></description><styleUrl>#poi</styleUrl><Point><coordinates>-100.06196,51.14190,0</coordinates></Point></Placemark>
    <Placemark><name>Dauphin Rail Museum</name><description><![CDATA[Day 9 · Sep 21<br>First look at the Churchill train — Group B 1:00, Group A 2:00<br><small>Base: Dauphin</small>]]></description><styleUrl>#poi</styleUrl><Point><coordinates>-100.05219,51.15036,0</coordinates></Point></Placemark>
    <Placemark><name>Riding Mountain National Park — Wasagaming</name><description><![CDATA[Day 10 · Sep 22<br>Guided vehicle tour with Ryan Murray; shop Wasagaming, see the bison<br><small>Base: Dauphin</small>]]></description><styleUrl>#poi</styleUrl><Point><coordinates>-99.97233,50.65763,0</coordinates></Point></Placemark>
    <Placemark><name>Spruce Products Ltd</name><description><![CDATA[Day 12 · Sep 24<br>Mill tour — Group B 9:30, Group A 1:00<br><small>Base: Swan River</small>]]></description><styleUrl>#poi</styleUrl><Point><coordinates>-101.27199,52.13277,0</coordinates></Point></Placemark>
    <Placemark><name>Pretty Valley Honey</name><description><![CDATA[Day 13 · Sep 25<br>Honey farm tour, 9:30 AM (near Minitonas)<br><small>Base: Swan River</small>]]></description><styleUrl>#poi</styleUrl><Point><coordinates>-101.08200,52.02830,0</coordinates></Point></Placemark>
    <Placemark><name>Opasquia Trails boardwalk</name><description><![CDATA[Day 15 · Sep 27<br>Boardwalk walk, 1:00 PM, Groups A & B<br><small>Base: The Pas</small>]]></description><styleUrl>#poi</styleUrl><Point><coordinates>-101.19583,53.82203,0</coordinates></Point></Placemark>
    <Placemark><name>Sam Waller Museum</name><description><![CDATA[Day 15 · Sep 27<br>Guided tour, 3:00 PM<br><small>Base: The Pas</small>]]></description><styleUrl>#poi</styleUrl><Point><coordinates>-101.25281,53.82305,0</coordinates></Point></Placemark>
    <Placemark><name>Round the Bend Farm</name><description><![CDATA[Day 16 · Sep 28<br>Blanket Exercise 2:30 · farm tour 4:00 · bison-kabob dinner 6:00 (731 Landels Rd)<br><small>Base: The Pas</small>]]></description><styleUrl>#poi</styleUrl><Point><coordinates>-101.64747,53.72988,0</coordinates></Point></Placemark>
    <Placemark><name>Pisew Falls</name><description><![CDATA[Day 18 · Sep 30<br>Stop on the long haul to Thompson<br><small>Base: Thompson</small>]]></description><styleUrl>#poi</styleUrl><Point><coordinates>-98.39665,55.19670,0</coordinates></Point></Placemark>
    <Placemark><name>University College of the North, Thompson</name><description><![CDATA[Day 19 · Oct 1<br>Community service — sort & distribute goods, 10:00 AM<br><small>Base: Thompson</small>]]></description><styleUrl>#poi</styleUrl><Point><coordinates>-97.86665,55.74963,0</coordinates></Point></Placemark>
    <Placemark><name>Heritage North Museum</name><description><![CDATA[Day 19 · Oct 1<br>Museum tour, 1:30 PM<br><small>Base: Thompson</small>]]></description><styleUrl>#poi</styleUrl><Point><coordinates>-97.85488,55.73300,0</coordinates></Point></Placemark>
    <Placemark><name>Northern Inn &amp; Steakhouse</name><description><![CDATA[Day 20 · Oct 2<br>Group lunch before the train, 11:00 AM<br><small>Base: Thompson</small>]]></description><styleUrl>#poi</styleUrl><Point><coordinates>-97.85651,55.74238,0</coordinates></Point></Placemark>
    <Placemark><name>VIA Rail station, Thompson</name><description><![CDATA[Day 20 · Oct 2 · Day 25 · Oct 7<br>Train departs 5:00 PM Oct 2 · returns noon Oct 7<br><small>Base: Thompson</small>]]></description><styleUrl>#poi</styleUrl><Point><coordinates>-97.83004,55.74066,0</coordinates></Point></Placemark>
    <Placemark><name>VIA Rail station, Churchill</name><description><![CDATA[Day 21 · Oct 3 · Day 24 · Oct 6<br>Arrive 9:00 AM Oct 3 · night train out 8:30 PM Oct 6<br><small>Base: Churchill</small>]]></description><styleUrl>#poi</styleUrl><Point><coordinates>-94.17455,58.76780,0</coordinates></Point></Placemark>
    <Placemark><name>Seaport Restaurant</name><description><![CDATA[Day 21 · Oct 3<br>Lunch on arrival — Group A 11:30, Group B 11:45<br><small>Base: Churchill</small>]]></description><styleUrl>#poi</styleUrl><Point><coordinates>-94.17145,58.76913,0</coordinates></Point></Placemark>
    <Placemark><name>Itsanitaq Museum</name><description><![CDATA[Days 21 & 24<br>Inuit carvings & artifacts<br><small>Base: Churchill</small>]]></description><styleUrl>#poi</styleUrl><Point><coordinates>-94.16683,58.77048,0</coordinates></Point></Placemark>
    <Placemark><name>Polar Bears International House</name><description><![CDATA[Days 21 & 24<br>PBI interpretive centre<br><small>Base: Churchill</small>]]></description><styleUrl>#poi</styleUrl><Point><coordinates>-94.16974,58.76832,0</coordinates></Point></Placemark>
    <Placemark><name>St. Paul&#x27;s Anglican Church</name><description><![CDATA[Day 21 · Oct 3<br>Community service drop-off, 2:00 PM<br><small>Base: Churchill</small>]]></description><styleUrl>#poi</styleUrl><Point><coordinates>-94.17352,58.77234,0</coordinates></Point></Placemark>
    <Placemark><name>Town Centre Complex (Town Theatre)</name><description><![CDATA[Day 21 · Oct 3<br>Cultural presentation, 3:00 PM · Parks Canada Visitor Centre<br><small>Base: Churchill</small>]]></description><styleUrl>#poi</styleUrl><Point><coordinates>-94.16870,58.77170,0</coordinates></Point></Placemark>
    <Placemark><name>The Ptarmigan</name><description><![CDATA[Days 21, 23, 24<br>Every Churchill meal in town — bus to the Tundra Buggy Dock leaves from here Oct 3<br><small>Base: Churchill</small>]]></description><styleUrl>#poi</styleUrl><Point><coordinates>-94.17300,58.77045,0</coordinates></Point></Placemark>
    <Placemark><name>Wapusk Adventures</name><description><![CDATA[Day 24 · Oct 6<br>Dog sledding — Group A 9:00, Group B 10:00 (office & store)<br><small>Base: Churchill</small>]]></description><styleUrl>#poi</styleUrl><Point><coordinates>-94.16578,58.76630,0</coordinates></Point></Placemark>
    <Placemark><name>Miss Piggy plane wreck</name><description><![CDATA[Day 21 · Oct 3<br>On the arrival shuttle tour<br><small>Base: Churchill</small>]]></description><styleUrl>#poi</styleUrl><Point><coordinates>-94.08676,58.76047,0</coordinates></Point></Placemark>
    <Placemark><name>Polar Bear Holding Facility</name><description><![CDATA[Day 21 · Oct 3<br>On the arrival shuttle tour<br><small>Base: Churchill</small>]]></description><styleUrl>#poi</styleUrl><Point><coordinates>-94.07573,58.75325,0</coordinates></Point></Placemark>
    <Placemark><name>Tundra Buggy Lodge (Polar Bear Point)</name><description><![CDATA[Days 21–23 · Oct 3–5<br>Two nights on the tundra — Frontiers North positions the Lodge seasonally; pin is approximate <i>(approximate location)</i><br><small>Base: Churchill</small>]]></description><styleUrl>#poi</styleUrl><Point><coordinates>-93.85000,58.76500,0</coordinates></Point></Placemark>
    <Placemark><name>Canadian Museum for Human Rights</name><description><![CDATA[Day 29 · Oct 11<br>Tour at 1:00 PM<br><small>Base: Winnipeg</small>]]></description><styleUrl>#poi</styleUrl><Point><coordinates>-97.13108,49.89065,0</coordinates></Point></Placemark>
    <Placemark><name>Assiniboine Park Zoo — Journey to Churchill</name><description><![CDATA[Day 30 · Oct 12<br>Self-guided tour, 10:00 AM<br><small>Base: Winnipeg</small>]]></description><styleUrl>#poi</styleUrl><Point><coordinates>-97.24106,49.87144,0</coordinates></Point></Placemark>
  </Folder>
  <Folder><name>Driving route</name>
    <Placemark><name>Winnipeg → Neepawa · 132 mi / 212 km</name><description>About 2 h 40 m of driving, before fuel and stops.</description><styleUrl>#road</styleUrl><LineString><tessellate>1</tessellate><coordinates>-96.97758,49.82848,0 -96.97731,49.82709,0 -96.97805,49.82673,0 -96.98127,49.82673,0 -96.98127,49.82251,0 -97.02399,49.82256,0 -97.02905,49.82181,0 -97.11904,49.79103,0 -97.12936,49.78669,0 -97.17638,49.77022,0 -97.18210,49.76874,0 -97.18757,49.76825,0 -97.28694,49.76794,0 -97.30987,49.77038,0 -97.31405,49.77162,0 -97.31722,49.77381,0 -97.32809,49.78696,0 -97.32931,49.78966,0 -97.32269,49.85497,0 -97.32620,49.87165,0 -97.32530,49.88117,0 -97.32481,49.88187,0 -97.32400,49.88202,0 -97.32337,49.88139,0 -97.32444,49.88075,0 -97.36185,49.87633,0 -97.38524,49.87554,0 -97.39461,49.87561,0 -97.40659,49.87623,0 -97.41568,49.87759,0 -97.42184,49.87796,0 -97.43304,49.87922,0 -97.47552,49.88264,0 -97.50003,49.88763,0 -97.50238,49.88788,0 -97.52688,49.88680,0 -97.64785,49.88708,0 -97.65174,49.88733,0 -97.87538,49.92896,0 -98.08197,49.96699,0 -98.10125,49.97207,0 -98.10577,49.97262,0 -98.21179,49.97501,0 -98.21514,49.97521,0 -98.22009,49.97605,0 -98.22280,49.97595,0 -98.22747,49.97490,0 -98.22987,49.97372,0 -98.23137,49.97219,0 -98.23781,49.96336,0 -98.23989,49.96182,0 -98.24171,49.96106,0 -98.26370,49.95825,0 -98.29353,49.94684,0 -98.29644,49.94624,0 -98.30031,49.94640,0 -98.35118,49.96215,0 -98.35367,49.96350,0 -98.35525,49.96486,0 -98.35865,49.97023,0 -98.36030,49.97199,0 -98.36312,49.97363,0 -98.36686,49.97470,0 -98.37304,49.97514,0 -98.46644,49.97518,0 -98.46827,49.97542,0 -98.46873,49.97612,0 -98.46884,50.04979,0 -98.46974,50.05256,0 -98.47488,50.05994,0 -98.47643,50.06152,0 -98.56480,50.12193,0 -98.56940,50.12378,0 -98.57843,50.12538,0 -98.58869,50.13086,0 -98.58968,50.13171,0 -98.59444,50.13769,0 -98.59564,50.13880,0 -98.59729,50.13972,0 -98.60140,50.14059,0 -98.63909,50.14439,0 -98.74303,50.18078,0 -98.74764,50.18135,0 -98.77807,50.18131,0 -98.79139,50.18177,0 -98.79486,50.18276,0 -98.80091,50.18506,0 -98.89500,50.21092,0 -98.94446,50.21131,0 -98.94737,50.21222,0 -98.94901,50.21330,0 -98.95598,50.22339,0 -98.95893,50.22509,0 -98.96205,50.22576,0 -99.23281,50.22582,0 -99.27689,50.22510,0 -99.37962,50.22536,0 -99.40531,50.22612,0 -99.45479,50.22620,0 -99.45465,50.22880,0</coordinates></LineString></Placemark>
    <Placemark><name>Neepawa → Dauphin · 89 mi / 143 km</name><description>About 2 h of driving, before fuel and stops.</description><styleUrl>#road</styleUrl><LineString><tessellate>1</tessellate><coordinates>-99.45465,50.22880,0 -99.45467,50.22845,0 -99.46642,50.22852,0 -99.46607,50.23592,0 -99.47736,50.23594,0 -99.47636,50.25508,0 -99.48172,50.31872,0 -99.48177,50.36517,0 -99.48146,50.36756,0 -99.48091,50.36872,0 -99.47128,50.37903,0 -99.47052,50.38014,0 -99.46981,50.38249,0 -99.46994,50.45993,0 -99.46780,50.57991,0 -99.47316,50.61084,0 -99.47335,50.63014,0 -99.47459,50.63226,0 -99.48337,50.63805,0 -99.48466,50.64014,0 -99.48537,50.76253,0 -99.48654,50.76439,0 -99.48787,50.76541,0 -99.50653,50.77443,0 -99.50785,50.77560,0 -99.50867,50.77734,0 -99.50875,50.94272,0 -99.50808,50.94486,0 -99.50175,50.95166,0 -99.50048,50.95379,0 -99.50044,51.03713,0 -99.50052,51.04632,0 -99.50104,51.04845,0 -99.50198,51.04960,0 -99.50390,51.05083,0 -99.50690,51.05173,0 -99.50880,51.05189,0 -99.79322,51.05166,0 -99.95160,51.07074,0 -99.95536,51.07196,0 -99.97083,51.08033,0 -99.97463,51.08129,0 -100.06210,51.08124,0 -100.06276,51.08139,0 -100.06322,51.08230,0 -100.06320,51.13780,0 -100.06216,51.13946,0 -100.04898,51.15044,0 -100.05305,51.15241,0</coordinates></LineString></Placemark>
    <Placemark><name>Dauphin → Swan River · 107 mi / 172 km</name><description>About 2 h 25 m of driving, before fuel and stops.</description><styleUrl>#road</styleUrl><LineString><tessellate>1</tessellate><coordinates>-100.05305,51.15241,0 -100.05812,51.15471,0 -100.06050,51.15503,0 -100.28835,51.15494,0 -100.29666,51.15566,0 -100.29748,51.15655,0 -100.29766,51.17782,0 -100.30204,51.18363,0 -100.30485,51.18826,0 -100.30892,51.19240,0 -100.31609,51.20200,0 -100.31987,51.20619,0 -100.32378,51.21032,0 -100.32971,51.21573,0 -100.33713,51.22008,0 -100.34155,51.22464,0 -100.35567,51.24446,0 -100.36170,51.25465,0 -100.36481,51.26095,0 -100.36838,51.26980,0 -100.37051,51.27623,0 -100.37363,51.28769,0 -100.37640,51.30250,0 -100.37704,51.30808,0 -100.37651,51.31142,0 -100.37654,51.31641,0 -100.37766,51.32339,0 -100.37738,51.33193,0 -100.37657,51.33412,0 -100.36269,51.34912,0 -100.36171,51.35072,0 -100.36073,51.36813,0 -100.35923,51.37935,0 -100.35787,51.38539,0 -100.35671,51.39268,0 -100.35468,51.39937,0 -100.35511,51.41168,0 -100.35355,51.41671,0 -100.35324,51.41919,0 -100.35633,51.42899,0 -100.35731,51.43534,0 -100.36019,51.44656,0 -100.36107,51.45165,0 -100.36436,51.45839,0 -100.36988,51.47272,0 -100.37679,51.48693,0 -100.37909,51.49519,0 -100.38129,51.50007,0 -100.38448,51.50583,0 -100.38634,51.50730,0 -100.42448,51.53052,0 -100.42679,51.53339,0 -100.43203,51.54222,0 -100.44208,51.56076,0 -100.44778,51.57235,0 -100.44966,51.57699,0 -100.46605,51.61211,0 -100.47271,51.62927,0 -100.47551,51.63877,0 -100.48483,51.65948,0 -100.48591,51.66396,0 -100.49130,51.67302,0 -100.49597,51.68518,0 -100.50025,51.69350,0 -100.50285,51.70215,0 -100.50870,51.71023,0 -100.51242,51.71602,0 -100.51808,51.72794,0 -100.52466,51.73884,0 -100.52977,51.74858,0 -100.53468,51.75840,0 -100.53617,51.76208,0 -100.53712,51.76713,0 -100.53864,51.77206,0 -100.54273,51.77766,0 -100.54575,51.78080,0 -100.55056,51.78824,0 -100.55589,51.79749,0 -100.56033,51.80126,0 -100.56375,51.80574,0 -100.56635,51.80753,0 -100.57540,51.81048,0 -100.57671,51.81140,0 -100.57756,51.81253,0 -100.58098,51.82099,0 -100.58107,51.82744,0 -100.58263,51.83081,0 -100.58398,51.83619,0 -100.58425,51.84439,0 -100.58593,51.84894,0 -100.58753,51.85473,0 -100.58881,51.85687,0 -100.59410,51.86139,0 -100.59490,51.86240,0 -100.59704,51.87016,0 -100.59791,51.87221,0 -100.59977,51.87381,0 -100.61398,51.88282,0 -100.61676,51.88580,0 -100.62171,51.88881,0 -100.63396,51.90187,0 -100.64378,51.91106,0 -100.64717,51.91625,0 -100.65591,51.93234,0 -100.65849,51.93825,0 -100.66132,51.94239,0 -100.66217,51.94602,0 -100.66252,51.94967,0 -100.66609,51.95660,0 -100.66675,51.95771,0 -100.67017,51.96050,0 -100.67209,51.96251,0 -100.67425,51.96574,0 -100.67462,51.96749,0 -100.67518,51.96769,0 -100.67527,51.96861,0 -100.67508,51.97263,0 -100.67433,51.97373,0 -100.65461,51.98904,0 -100.65306,51.98971,0 -100.64453,51.99084,0 -100.64309,51.99167,0 -100.64226,51.99307,0 -100.64520,51.99953,0 -100.64688,52.00581,0 -100.64801,52.01476,0 -100.64847,52.02698,0 -100.64972,52.03231,0 -100.64453,52.05301,0 -100.64451,52.05592,0 -100.64751,52.06418,0 -100.64861,52.06632,0 -100.66016,52.07869,0 -100.66208,52.07994,0 -100.66526,52.08114,0 -100.68655,52.08504,0 -100.68970,52.08600,0 -100.69189,52.08757,0 -100.70048,52.09674,0 -100.70296,52.09823,0 -100.71949,52.10164,0 -100.72486,52.10236,0 -100.74132,52.10028,0 -100.75442,52.09965,0 -100.87233,52.10000,0 -100.98947,52.09963,0 -101.13973,52.10022,0 -101.17143,52.09995,0 -101.17513,52.10043,0 -101.17800,52.10177,0 -101.18216,52.10532,0 -101.18505,52.10665,0 -101.18866,52.10712,0 -101.21469,52.10713,0 -101.22200,52.10627,0 -101.23093,52.10719,0 -101.24895,52.10718,0 -101.25804,52.10711,0 -101.27532,52.10430,0 -101.27534,52.10003,0</coordinates></LineString></Placemark>
    <Placemark><name>Swan River → The Pas · 143 mi / 231 km</name><description>About 3 h 30 m of driving, before fuel and stops.</description><styleUrl>#road</styleUrl><LineString><tessellate>1</tessellate><coordinates>-101.27534,52.10003,0 -101.27532,52.10430,0 -101.25804,52.10711,0 -101.25148,52.10713,0 -101.25153,52.22570,0 -101.25135,52.22677,0 -101.25009,52.22857,0 -101.24870,52.22956,0 -101.24586,52.23060,0 -101.24306,52.23090,0 -101.22771,52.23090,0 -101.22774,52.31806,0 -101.22351,52.31815,0 -101.21874,52.32139,0 -101.21710,52.32211,0 -101.21442,52.32154,0 -101.21280,52.32314,0 -101.21125,52.32410,0 -101.19073,52.33206,0 -101.18725,52.33370,0 -101.18477,52.33593,0 -101.15501,52.36667,0 -101.13035,52.38256,0 -101.12794,52.38476,0 -101.12722,52.38602,0 -101.12344,52.39716,0 -101.09171,52.49394,0 -101.09100,52.49762,0 -101.09154,52.55151,0 -101.09136,52.55419,0 -101.08818,52.56771,0 -101.08794,52.57037,0 -101.10074,52.64736,0 -101.10196,52.64975,0 -101.10892,52.65824,0 -101.10920,52.65997,0 -101.10866,52.66139,0 -101.10760,52.66266,0 -101.09977,52.66638,0 -101.09753,52.66812,0 -101.09723,52.67041,0 -101.09911,52.67254,0 -101.10905,52.68099,0 -101.11298,52.68863,0 -101.11493,52.70008,0 -101.11508,52.70247,0 -101.11501,52.73536,0 -101.11435,52.73687,0 -101.11274,52.73838,0 -101.11003,52.73956,0 -101.10190,52.74014,0 -101.09819,52.74127,0 -101.09288,52.74527,0 -101.09128,52.74765,0 -101.09094,52.75024,0 -101.09095,52.76083,0 -101.09009,52.76333,0 -101.08600,52.76777,0 -101.08352,52.76979,0 -101.05526,52.78572,0 -101.04227,52.79174,0 -101.04058,52.79343,0 -101.04005,52.79480,0 -101.03966,52.79784,0 -101.03979,52.79930,0 -101.04044,52.80050,0 -101.05296,52.81227,0 -101.05664,52.81685,0 -101.05741,52.81930,0 -101.05709,52.82173,0 -101.05608,52.82401,0 -101.04598,52.83485,0 -101.04462,52.83721,0 -101.04454,52.83969,0 -101.05235,52.85376,0 -101.05297,52.85545,0 -101.05265,52.85925,0 -101.04841,52.88167,0 -101.04750,52.88293,0 -101.04560,52.88427,0 -101.03064,52.88977,0 -101.02742,52.89182,0 -101.02561,52.89444,0 -101.02298,52.90539,0 -101.02071,52.92422,0 -101.02088,52.92690,0 -101.03254,52.95518,0 -101.03369,52.95828,0 -101.03345,52.96099,0 -101.02841,52.97798,0 -101.02663,52.98022,0 -101.02371,52.98216,0 -101.00000,52.99666,0 -100.99878,52.99816,0 -100.99800,52.99998,0 -100.99762,53.00616,0 -100.99777,53.00752,0 -100.99828,53.00864,0 -101.00086,53.01248,0 -101.00320,53.01446,0 -101.00886,53.01814,0 -101.01229,53.01947,0 -101.02391,53.02244,0 -101.02814,53.02280,0 -101.05402,53.02330,0 -101.05796,53.02401,0 -101.06175,53.02512,0 -101.06490,53.02680,0 -101.08147,53.03732,0 -101.08342,53.03920,0 -101.08746,53.04904,0 -101.09260,53.05927,0 -101.09461,53.06157,0 -101.09772,53.06332,0 -101.10515,53.06581,0 -101.10821,53.06760,0 -101.11013,53.06990,0 -101.11075,53.07251,0 -101.11281,53.12521,0 -101.11267,53.12773,0 -101.11136,53.13007,0 -101.09855,53.14356,0 -101.09664,53.14576,0 -101.09588,53.14732,0 -101.09409,53.17510,0 -101.08758,53.22070,0 -101.08968,53.24197,0 -101.08925,53.24458,0 -101.08743,53.24691,0 -101.06104,53.26755,0 -101.04835,53.28171,0 -101.03558,53.30436,0 -101.03536,53.30697,0 -101.03738,53.31750,0 -101.03843,53.31991,0 -101.04058,53.32198,0 -101.05832,53.33624,0 -101.07274,53.35125,0 -101.07478,53.35304,0 -101.07781,53.35457,0 -101.08104,53.35540,0 -101.10474,53.35965,0 -101.12589,53.35985,0 -101.17255,53.36627,0 -101.17647,53.36729,0 -101.18709,53.37151,0 -101.19504,53.37306,0 -101.20575,53.37425,0 -101.21145,53.37524,0 -101.21509,53.37666,0 -101.22126,53.38018,0 -101.22501,53.38130,0 -101.27321,53.39102,0 -101.27711,53.39193,0 -101.28819,53.39575,0 -101.29201,53.39671,0 -101.30380,53.39848,0 -101.30749,53.39933,0 -101.31550,53.40325,0 -101.31692,53.40428,0 -101.33512,53.42216,0 -101.33737,53.42487,0 -101.33791,53.42630,0 -101.33737,53.43915,0 -101.33841,53.44172,0 -101.34786,53.45799,0 -101.35274,53.46994,0 -101.35429,53.47235,0 -101.35622,53.47469,0 -101.36592,53.48149,0 -101.37235,53.48490,0 -101.37818,53.48716,0 -101.38105,53.48914,0 -101.40410,53.51763,0 -101.42464,53.53637,0 -101.42632,53.53867,0 -101.42667,53.54116,0 -101.42577,53.54359,0 -101.41204,53.57090,0 -101.41112,53.57326,0 -101.41129,53.57561,0 -101.41457,53.59056,0 -101.41453,53.59188,0 -101.41401,53.59337,0 -101.41176,53.59589,0 -101.40913,53.59738,0 -101.40318,53.59951,0 -101.40054,53.60106,0 -101.39580,53.60555,0 -101.39361,53.61052,0 -101.39175,53.61241,0 -101.37634,53.61949,0 -101.36321,53.62907,0 -101.35679,53.63213,0 -101.35161,53.63515,0 -101.34451,53.63865,0 -101.33574,53.64245,0 -101.32272,53.64947,0 -101.32072,53.65024,0 -101.31538,53.65147,0 -101.29194,53.65961,0 -101.27024,53.67131,0 -101.26344,53.67402,0 -101.25907,53.67624,0 -101.25578,53.67849,0 -101.25100,53.68292,0 -101.24597,53.68644,0 -101.21825,53.71462,0 -101.21644,53.71680,0 -101.21147,53.72557,0 -101.21126,53.72781,0 -101.21151,53.72877,0 -101.21901,53.74491,0 -101.23090,53.75974,0 -101.23208,53.76237,0 -101.23204,53.76403,0 -101.22875,53.77500,0 -101.22633,53.78500,0 -101.22655,53.78744,0 -101.22838,53.79068,0 -101.23035,53.79225,0 -101.23237,53.79308,0 -101.23764,53.79440,0 -101.24027,53.79550,0 -101.24925,53.80047,0 -101.25106,53.80207,0 -101.25176,53.80353,0 -101.25203,53.80506,0 -101.24938,53.81819,0 -101.24873,53.81985,0 -101.25447,53.82489,0</coordinates></LineString></Placemark>
    <Placemark><name>The Pas → Flin Flon · 85 mi / 137 km</name><description>About 2 h 05 m of driving, before fuel and stops.</description><styleUrl>#road</styleUrl><LineString><tessellate>1</tessellate><coordinates>-101.25447,53.82489,0 -101.25510,53.82542,0 -101.25519,53.82605,0 -101.25070,53.82816,0 -101.25044,53.82850,0 -101.25062,53.82882,0 -101.26964,53.84021,0 -101.27330,53.84151,0 -101.31100,53.84933,0 -101.31355,53.85032,0 -101.31564,53.85165,0 -101.31719,53.85322,0 -101.31806,53.85495,0 -101.31826,53.85631,0 -101.31790,53.85811,0 -101.29322,53.92142,0 -101.29171,53.92415,0 -101.28938,53.92611,0 -101.27746,53.93432,0 -101.27355,53.93561,0 -101.25776,53.93827,0 -101.25392,53.93994,0 -101.25144,53.94236,0 -101.25070,53.94469,0 -101.25072,53.97173,0 -101.25096,53.97425,0 -101.25211,53.97715,0 -101.25376,53.97942,0 -101.27917,54.00476,0 -101.28065,54.00714,0 -101.29827,54.05308,0 -101.35152,54.13385,0 -101.35273,54.13626,0 -101.35526,54.14385,0 -101.35657,54.14636,0 -101.36021,54.15114,0 -101.36045,54.18128,0 -101.36033,54.23879,0 -101.36067,54.24098,0 -101.40273,54.31892,0 -101.40331,54.32142,0 -101.38524,54.36315,0 -101.37834,54.39395,0 -101.36256,54.41909,0 -101.36227,54.42139,0 -101.38125,54.46565,0 -101.38134,54.46826,0 -101.37360,54.57124,0 -101.37329,54.57389,0 -101.37111,54.58018,0 -101.37123,54.58125,0 -101.37220,54.58284,0 -101.37949,54.58776,0 -101.37985,54.58845,0 -101.37969,54.59098,0 -101.37575,54.59366,0 -101.37459,54.59601,0 -101.37372,54.59859,0 -101.37419,54.60193,0 -101.37569,54.60350,0 -101.37865,54.60567,0 -101.38183,54.60749,0 -101.38564,54.60912,0 -101.38751,54.61045,0 -101.39001,54.61894,0 -101.38955,54.62120,0 -101.38638,54.62629,0 -101.38120,54.63651,0 -101.38077,54.63874,0 -101.38118,54.63961,0 -101.38268,54.64090,0 -101.38504,54.64178,0 -101.39557,54.64398,0 -101.43737,54.64677,0 -101.45077,54.64922,0 -101.45530,54.64976,0 -101.47344,54.64781,0 -101.47764,54.64850,0 -101.48050,54.64970,0 -101.49135,54.65565,0 -101.49443,54.65684,0 -101.49982,54.65763,0 -101.51264,54.65775,0 -101.55512,54.65297,0 -101.56174,54.65200,0 -101.57350,54.64865,0 -101.57787,54.64834,0 -101.57996,54.64849,0 -101.58310,54.64910,0 -101.58597,54.65017,0 -101.60467,54.66139,0 -101.60818,54.66290,0 -101.61954,54.66623,0 -101.62415,54.66833,0 -101.63644,54.67559,0 -101.63922,54.67618,0 -101.64127,54.67620,0 -101.65168,54.67477,0 -101.65869,54.67665,0 -101.67020,54.67673,0 -101.67275,54.67733,0 -101.67677,54.68002,0 -101.67781,54.68124,0 -101.67784,54.68211,0 -101.67552,54.68829,0 -101.67565,54.68909,0 -101.67690,54.69007,0 -101.68229,54.69237,0 -101.68672,54.69298,0 -101.71050,54.69123,0 -101.71500,54.69234,0 -101.72514,54.69566,0 -101.72707,54.69590,0 -101.72901,54.69579,0 -101.73977,54.69382,0 -101.74349,54.69400,0 -101.74976,54.69664,0 -101.76058,54.70058,0 -101.76790,54.70284,0 -101.76901,54.70338,0 -101.77076,54.70515,0 -101.77486,54.70740,0 -101.77602,54.70894,0 -101.77724,54.71380,0 -101.77720,54.71491,0 -101.77610,54.71826,0 -101.77651,54.71975,0 -101.78218,54.72604,0 -101.79195,54.73356,0 -101.79435,54.73593,0 -101.79902,54.74253,0 -101.80061,54.74814,0 -101.80168,54.74980,0 -101.80673,54.75312,0 -101.80858,54.75496,0 -101.81095,54.75833,0 -101.81282,54.75982,0 -101.82854,54.76689,0 -101.83514,54.76927,0 -101.83608,54.76990,0 -101.83952,54.76935,0 -101.83987,54.77086,0 -101.83962,54.77185,0</coordinates></LineString></Placemark>
    <Placemark><name>Flin Flon → Thompson · 233 mi / 376 km</name><description>About 5 h 15 m of driving, before fuel and stops.</description><styleUrl>#road</styleUrl><LineString><tessellate>1</tessellate><coordinates>-101.83962,54.77185,0 -101.83987,54.77086,0 -101.83952,54.76935,0 -101.83726,54.76967,0 -101.83563,54.76946,0 -101.82854,54.76689,0 -101.81282,54.75982,0 -101.81095,54.75833,0 -101.80858,54.75496,0 -101.80673,54.75312,0 -101.80168,54.74980,0 -101.80061,54.74814,0 -101.79902,54.74253,0 -101.79435,54.73593,0 -101.79195,54.73356,0 -101.78218,54.72604,0 -101.77651,54.71975,0 -101.77610,54.71826,0 -101.77720,54.71491,0 -101.77724,54.71380,0 -101.77602,54.70894,0 -101.77486,54.70740,0 -101.77076,54.70515,0 -101.76901,54.70338,0 -101.76790,54.70284,0 -101.76058,54.70058,0 -101.74976,54.69664,0 -101.74349,54.69400,0 -101.73977,54.69382,0 -101.72901,54.69579,0 -101.72707,54.69590,0 -101.72514,54.69566,0 -101.71500,54.69234,0 -101.71050,54.69123,0 -101.68672,54.69298,0 -101.68229,54.69237,0 -101.67690,54.69007,0 -101.67565,54.68909,0 -101.67552,54.68829,0 -101.67784,54.68211,0 -101.67781,54.68124,0 -101.67677,54.68002,0 -101.67275,54.67733,0 -101.67020,54.67673,0 -101.65869,54.67665,0 -101.65168,54.67477,0 -101.64127,54.67620,0 -101.63922,54.67618,0 -101.63644,54.67559,0 -101.62415,54.66833,0 -101.61954,54.66623,0 -101.60818,54.66290,0 -101.60467,54.66139,0 -101.58597,54.65017,0 -101.58310,54.64910,0 -101.57996,54.64849,0 -101.57787,54.64834,0 -101.57350,54.64865,0 -101.56174,54.65200,0 -101.55512,54.65297,0 -101.51264,54.65775,0 -101.49982,54.65763,0 -101.49443,54.65684,0 -101.49135,54.65565,0 -101.48050,54.64970,0 -101.47764,54.64850,0 -101.47344,54.64781,0 -101.45530,54.64976,0 -101.45077,54.64922,0 -101.43737,54.64677,0 -101.39557,54.64398,0 -101.38504,54.64178,0 -101.38268,54.64090,0 -101.38118,54.63961,0 -101.38077,54.63874,0 -101.38120,54.63651,0 -101.38638,54.62629,0 -101.38955,54.62120,0 -101.39001,54.61894,0 -101.38751,54.61045,0 -101.38564,54.60912,0 -101.38183,54.60749,0 -101.37865,54.60567,0 -101.37569,54.60350,0 -101.37419,54.60193,0 -101.37372,54.59859,0 -101.37459,54.59601,0 -101.37575,54.59366,0 -101.37969,54.59098,0 -101.37985,54.58845,0 -101.37949,54.58776,0 -101.37220,54.58284,0 -101.37123,54.58125,0 -101.37111,54.58018,0 -101.37329,54.57389,0 -101.37360,54.57124,0 -101.38134,54.46826,0 -101.38125,54.46565,0 -101.37037,54.44040,0 -101.31971,54.45358,0 -101.31533,54.45461,0 -101.31076,54.45522,0 -101.30600,54.45537,0 -101.30140,54.45499,0 -101.26669,54.45004,0 -101.26219,54.45012,0 -101.25791,54.45110,0 -101.23916,54.46034,0 -101.21765,54.47603,0 -101.15622,54.50776,0 -101.13413,54.51627,0 -101.11473,54.52335,0 -101.11132,54.52430,0 -101.07672,54.53041,0 -101.07285,54.53153,0 -100.98886,54.56106,0 -100.89694,54.58607,0 -100.89262,54.58718,0 -100.88803,54.58791,0 -100.82043,54.59045,0 -100.70270,54.59692,0 -100.69865,54.59668,0 -100.69175,54.59538,0 -100.64538,54.57923,0 -100.64160,54.57815,0 -100.63740,54.57747,0 -100.63316,54.57716,0 -100.62797,54.57726,0 -100.50262,54.58210,0 -100.49936,54.58196,0 -100.49352,54.58116,0 -100.48956,54.58012,0 -100.45217,54.56459,0 -100.44866,54.56332,0 -100.44085,54.56177,0 -100.43316,54.56161,0 -100.37753,54.56427,0 -100.37287,54.56459,0 -100.36847,54.56534,0 -100.36444,54.56647,0 -100.36091,54.56790,0 -100.32079,54.59006,0 -100.31482,54.59286,0 -100.25162,54.60901,0 -100.24653,54.61002,0 -100.24208,54.61038,0 -100.23756,54.61032,0 -100.20305,54.60621,0 -100.19623,54.60601,0 -100.18988,54.60671,0 -100.18596,54.60769,0 -100.14040,54.62208,0 -100.13612,54.62304,0 -100.13142,54.62358,0 -100.04080,54.62233,0 -100.03628,54.62244,0 -100.03203,54.62294,0 -100.02807,54.62381,0 -100.00777,54.63026,0 -100.00325,54.63112,0 -99.98118,54.63382,0 -99.97731,54.63464,0 -99.97107,54.63685,0 -99.94994,54.64634,0 -99.94630,54.64756,0 -99.94238,54.64843,0 -99.93833,54.64893,0 -99.89624,54.65120,0 -99.89235,54.65111,0 -99.88857,54.65034,0 -99.88158,54.64753,0 -99.86998,54.64510,0 -99.86705,54.64358,0 -99.86260,54.64039,0 -99.85923,54.63914,0 -99.85156,54.63715,0 -99.85025,54.63650,0 -99.83212,54.62644,0 -99.78222,54.60515,0 -99.77608,54.60317,0 -99.77141,54.60247,0 -99.66321,54.59259,0 -99.58135,54.57929,0 -99.57712,54.57917,0 -99.54026,54.58842,0 -99.42236,54.59473,0 -99.41835,54.59610,0 -99.41707,54.59710,0 -99.39219,54.62021,0 -99.38960,54.62154,0 -99.31099,54.63476,0 -99.11951,54.68149,0 -99.04848,54.68857,0 -99.00987,54.69570,0 -98.94244,54.69376,0 -98.93839,54.69422,0 -98.91800,54.69837,0 -98.91408,54.69969,0 -98.91101,54.70174,0 -98.76928,54.82709,0 -98.76798,54.82859,0 -98.75616,54.84581,0 -98.69473,54.89849,0 -98.69377,54.90002,0 -98.69036,54.91098,0 -98.68892,54.91297,0 -98.67309,54.92270,0 -98.65643,54.93206,0 -98.64306,54.94345,0 -98.63457,54.95260,0 -98.60756,54.96964,0 -98.58636,54.98919,0 -98.58005,54.99641,0 -98.57785,54.99939,0 -98.55375,55.02699,0 -98.55174,55.02844,0 -98.52300,55.04445,0 -98.51246,55.05325,0 -98.49530,55.06535,0 -98.47855,55.07959,0 -98.47741,55.08185,0 -98.47624,55.11266,0 -98.47546,55.11513,0 -98.47340,55.11736,0 -98.45421,55.13518,0 -98.45273,55.13746,0 -98.44919,55.14729,0 -98.44734,55.14934,0 -98.44113,55.15496,0 -98.43981,55.15729,0 -98.43882,55.17414,0 -98.43785,55.17701,0 -98.42386,55.18948,0 -98.41950,55.19431,0 -98.41297,55.19991,0 -98.41131,55.20180,0 -98.39709,55.23761,0 -98.39637,55.24031,0 -98.39171,55.27238,0 -98.39030,55.27510,0 -98.38729,55.27736,0 -98.36727,55.28542,0 -98.36460,55.28760,0 -98.36338,55.29029,0 -98.35988,55.33125,0 -98.35935,55.33418,0 -98.35869,55.33543,0 -98.32262,55.36612,0 -98.31006,55.37336,0 -98.30081,55.38110,0 -98.29106,55.38764,0 -98.27576,55.39938,0 -98.23479,55.43311,0 -98.23134,55.43516,0 -98.19253,55.45166,0 -98.14381,55.47481,0 -98.14120,55.47695,0 -98.11261,55.50598,0 -98.10991,55.50823,0 -98.10648,55.50997,0 -98.06545,55.52744,0 -98.06236,55.52949,0 -98.04873,55.54142,0 -98.01966,55.55758,0 -98.01552,55.56050,0 -97.98844,55.58310,0 -97.96954,55.60314,0 -97.96844,55.60470,0 -97.95578,55.62792,0 -97.95419,55.62971,0 -97.94049,55.64108,0 -97.93896,55.64301,0 -97.92579,55.66912,0 -97.92377,55.67208,0 -97.87055,55.72327,0 -97.86721,55.72595,0 -97.85006,55.73681,0 -97.84933,55.73847,0 -97.85074,55.74470,0 -97.85059,55.74573,0 -97.84992,55.74682,0 -97.84457,55.75218,0 -97.84006,55.75464,0 -97.83560,55.75841,0 -97.83457,55.75805,0 -97.83518,55.75724,0 -97.83446,55.75703,0 -97.83454,55.75638,0</coordinates></LineString></Placemark>
    <Placemark><name>Thompson → Grand Rapids · 204 mi / 328 km</name><description>About 4 h 05 m of driving, before fuel and stops.</description><styleUrl>#road</styleUrl><LineString><tessellate>1</tessellate><coordinates>-97.83454,55.75638,0 -97.83446,55.75703,0 -97.83518,55.75724,0 -97.83457,55.75805,0 -97.83560,55.75841,0 -97.84006,55.75464,0 -97.84457,55.75218,0 -97.84652,55.75005,0 -97.85005,55.74696,0 -97.85078,55.74583,0 -97.85096,55.74459,0 -97.84959,55.73843,0 -97.84981,55.73752,0 -97.85040,55.73677,0 -97.86771,55.72590,0 -97.86997,55.72405,0 -97.92377,55.67208,0 -97.92579,55.66912,0 -97.93896,55.64301,0 -97.94049,55.64108,0 -97.95419,55.62971,0 -97.95578,55.62792,0 -97.96844,55.60470,0 -97.96954,55.60314,0 -97.98844,55.58310,0 -98.01552,55.56050,0 -98.01966,55.55758,0 -98.04873,55.54142,0 -98.06236,55.52949,0 -98.06545,55.52744,0 -98.10648,55.50997,0 -98.10991,55.50823,0 -98.11261,55.50598,0 -98.14120,55.47695,0 -98.14381,55.47481,0 -98.19253,55.45166,0 -98.23134,55.43516,0 -98.23479,55.43311,0 -98.27576,55.39938,0 -98.29106,55.38764,0 -98.30081,55.38110,0 -98.31006,55.37336,0 -98.32262,55.36612,0 -98.35869,55.33543,0 -98.35935,55.33418,0 -98.35988,55.33125,0 -98.36338,55.29029,0 -98.36460,55.28760,0 -98.36727,55.28542,0 -98.38729,55.27736,0 -98.39030,55.27510,0 -98.39171,55.27238,0 -98.39637,55.24031,0 -98.39709,55.23761,0 -98.41131,55.20180,0 -98.41297,55.19991,0 -98.41950,55.19431,0 -98.42386,55.18948,0 -98.43785,55.17701,0 -98.43882,55.17414,0 -98.43981,55.15729,0 -98.44113,55.15496,0 -98.44734,55.14934,0 -98.44919,55.14729,0 -98.45273,55.13746,0 -98.45421,55.13518,0 -98.47340,55.11736,0 -98.47546,55.11513,0 -98.47624,55.11266,0 -98.47741,55.08185,0 -98.47855,55.07959,0 -98.49530,55.06535,0 -98.51246,55.05325,0 -98.52300,55.04445,0 -98.55174,55.02844,0 -98.55375,55.02699,0 -98.57785,54.99939,0 -98.58005,54.99641,0 -98.58636,54.98919,0 -98.60756,54.96964,0 -98.63457,54.95260,0 -98.64306,54.94345,0 -98.65643,54.93206,0 -98.67309,54.92270,0 -98.68892,54.91297,0 -98.69036,54.91098,0 -98.69377,54.90002,0 -98.69473,54.89849,0 -98.75616,54.84581,0 -98.76798,54.82859,0 -98.76928,54.82709,0 -98.91101,54.70174,0 -98.91408,54.69969,0 -98.91800,54.69837,0 -98.93839,54.69422,0 -98.94244,54.69376,0 -99.00987,54.69570,0 -99.04848,54.68857,0 -99.11951,54.68149,0 -99.15875,54.67199,0 -99.15675,54.66979,0 -99.14869,54.66361,0 -99.14333,54.65985,0 -99.14004,54.65811,0 -99.10609,54.64563,0 -99.10367,54.64435,0 -99.10174,54.64233,0 -99.10116,54.64089,0 -99.09680,54.59857,0 -99.09596,54.59334,0 -99.03764,54.51179,0 -99.03754,54.50724,0 -99.03934,54.45489,0 -99.06530,54.40318,0 -99.06633,54.40168,0 -99.08579,54.37989,0 -99.09103,54.37599,0 -99.10082,54.36587,0 -99.10191,54.36453,0 -99.10255,54.36302,0 -99.10280,54.35964,0 -99.10328,54.35826,0 -99.10909,54.35046,0 -99.11627,54.34536,0 -99.13178,54.32788,0 -99.17005,54.21742,0 -99.17026,54.21563,0 -99.16878,54.20403,0 -99.16917,54.20290,0 -99.17512,54.19273,0 -99.17546,54.19150,0 -99.17520,54.19003,0 -99.17444,54.18887,0 -99.16568,54.18031,0 -99.16488,54.17898,0 -99.15650,54.12342,0 -99.16331,54.06521,0 -99.19628,53.99663,0 -99.25223,53.84031,0 -99.33433,53.71590,0 -99.33537,53.71366,0 -99.34311,53.56060,0 -99.34120,53.33010,0 -99.33018,53.25927,0 -99.32893,53.25773,0 -99.32683,53.25627,0 -99.32749,53.25601,0 -99.32992,53.25719,0 -99.40247,53.25674,0 -99.40250,53.25161,0 -99.40320,53.25101,0 -99.41385,53.25926,0</coordinates></LineString></Placemark>
    <Placemark><name>Grand Rapids → Winnipeg · 293 mi / 471 km</name><description>About 6 h of driving, before fuel and stops.</description><styleUrl>#road</styleUrl><LineString><tessellate>1</tessellate><coordinates>-99.41385,53.25926,0 -99.40320,53.25101,0 -99.40250,53.25161,0 -99.40247,53.25674,0 -99.32943,53.25709,0 -99.32749,53.25601,0 -99.32683,53.25627,0 -99.28973,53.23063,0 -99.28911,53.22925,0 -99.28929,53.22783,0 -99.29996,53.18994,0 -99.29998,53.18860,0 -99.29932,53.18740,0 -99.29811,53.18643,0 -99.29489,53.18539,0 -99.26764,53.18404,0 -99.25853,53.17953,0 -99.25678,53.17797,0 -99.25659,53.17642,0 -99.26161,53.14038,0 -99.26148,53.13824,0 -99.25930,53.13535,0 -99.25507,53.13080,0 -99.25417,53.12931,0 -99.25397,53.11683,0 -99.25347,53.11549,0 -99.23504,53.09487,0 -99.23390,53.09212,0 -99.22211,53.05138,0 -99.22233,53.04911,0 -99.22696,53.03427,0 -99.22656,53.03207,0 -99.22533,53.03063,0 -99.22347,53.02951,0 -99.16653,53.00368,0 -99.16481,53.00240,0 -99.16382,53.00086,0 -99.16154,52.98576,0 -99.16162,52.98386,0 -99.16276,52.98171,0 -99.17610,52.96772,0 -99.17722,52.96605,0 -99.18528,52.92208,0 -99.18455,52.91978,0 -99.18323,52.91848,0 -99.18128,52.91750,0 -99.13905,52.90283,0 -99.13662,52.90154,0 -99.13554,52.90043,0 -99.11502,52.86924,0 -99.11410,52.86841,0 -99.11182,52.86725,0 -99.10922,52.86662,0 -99.10705,52.86652,0 -99.03944,52.86957,0 -99.03540,52.86898,0 -99.03378,52.86832,0 -99.03217,52.86721,0 -99.03127,52.86615,0 -98.95708,52.73287,0 -98.95652,52.73057,0 -98.95441,52.69295,0 -98.95401,52.69056,0 -98.88829,52.58677,0 -98.88725,52.58473,0 -98.88701,52.58316,0 -98.88551,52.54613,0 -98.88395,52.52712,0 -98.88259,52.47134,0 -98.88334,52.46943,0 -98.91207,52.41847,0 -98.91308,52.41556,0 -98.90967,52.39737,0 -98.90482,52.38625,0 -98.90400,52.38007,0 -98.90140,52.37212,0 -98.89282,52.36094,0 -98.89159,52.35859,0 -98.89130,52.34579,0 -98.89183,52.34413,0 -98.89345,52.34244,0 -98.90728,52.33664,0 -98.90897,52.33562,0 -98.91040,52.33389,0 -98.91076,52.33251,0 -98.91092,52.29498,0 -98.91115,52.29295,0 -98.92810,52.26610,0 -98.92869,52.26460,0 -98.92863,52.26328,0 -98.92751,52.26141,0 -98.87416,52.20272,0 -98.87240,52.20047,0 -98.84774,52.13279,0 -98.84783,52.13113,0 -98.85149,52.12259,0 -98.85170,52.12072,0 -98.82454,52.05116,0 -98.82437,52.04926,0 -98.84071,52.00806,0 -98.84095,52.00614,0 -98.81788,51.93093,0 -98.81618,51.90226,0 -98.81497,51.90016,0 -98.81401,51.89921,0 -98.81150,51.89762,0 -98.80619,51.89575,0 -98.78570,51.88976,0 -98.78318,51.88854,0 -98.78189,51.88731,0 -98.74724,51.81410,0 -98.74567,51.81172,0 -98.73706,51.80339,0 -98.73578,51.80101,0 -98.73553,51.79955,0 -98.73527,51.71227,0 -98.73533,51.62327,0 -98.73559,51.62022,0 -98.73758,51.61152,0 -98.73762,51.59944,0 -98.73732,51.59781,0 -98.73626,51.59631,0 -98.72289,51.58273,0 -98.72042,51.58118,0 -98.66733,51.56896,0 -98.66380,51.56754,0 -98.60356,51.51025,0 -98.60129,51.50746,0 -98.59437,51.50083,0 -98.58921,51.49659,0 -98.55252,51.46141,0 -98.51518,51.41203,0 -98.50377,51.39822,0 -98.49831,51.39088,0 -98.49328,51.38298,0 -98.42904,51.29751,0 -98.42723,51.29504,0 -98.42624,51.29308,0 -98.42206,51.28740,0 -98.41932,51.28480,0 -98.35089,51.19324,0 -98.35013,51.19115,0 -98.35009,51.17004,0 -98.34926,51.16800,0 -98.34773,51.16665,0 -98.34554,51.16564,0 -98.32869,51.16119,0 -98.32684,51.16027,0 -98.32546,51.15905,0 -98.27175,51.08680,0 -98.27113,51.08548,0 -98.27050,51.08222,0 -98.26221,51.07094,0 -98.25894,51.06656,0 -98.25427,51.06314,0 -98.24549,51.05132,0 -98.24477,51.04888,0 -98.24479,51.04078,0 -98.24448,51.03817,0 -98.24253,51.03600,0 -98.23227,51.03131,0 -98.22951,51.02959,0 -98.18761,50.97303,0 -98.18572,50.96825,0 -98.18209,50.96327,0 -98.17752,50.95928,0 -98.17231,50.95238,0 -98.15905,50.93801,0 -98.15852,50.93609,0 -98.15846,50.90935,0 -98.15831,50.90833,0 -98.15752,50.90687,0 -98.15561,50.90522,0 -98.13921,50.89452,0 -98.11628,50.87648,0 -98.11169,50.87047,0 -98.11133,50.85825,0 -98.11049,50.85616,0 -98.10794,50.85424,0 -98.09582,50.84983,0 -98.09345,50.84810,0 -98.06526,50.81282,0 -98.06449,50.81085,0 -98.06452,50.80617,0 -98.06362,50.80433,0 -98.04241,50.78175,0 -98.04154,50.77957,0 -98.04146,50.77391,0 -98.04190,50.59960,0 -98.04159,50.59855,0 -98.04049,50.59710,0 -98.03876,50.59594,0 -98.03655,50.59515,0 -98.03408,50.59485,0 -98.02368,50.59488,0 -98.01954,50.59408,0 -98.01635,50.59225,0 -98.01514,50.59078,0 -98.01469,50.58972,0 -98.01429,50.49436,0 -98.01401,50.49292,0 -98.01347,50.49197,0 -98.01089,50.49002,0 -98.00497,50.48834,0 -98.00311,50.48738,0 -97.94592,50.44887,0 -97.94489,50.44792,0 -97.94356,50.44554,0 -97.94128,50.42650,0 -97.94163,50.41554,0 -97.94159,50.41464,0 -97.94091,50.41347,0 -97.93946,50.41246,0 -97.93655,50.41143,0 -97.93342,50.40897,0 -97.82967,50.31529,0 -97.81521,50.30593,0 -97.81104,50.30288,0 -97.80612,50.30009,0 -97.72851,50.25000,0 -97.56494,50.14402,0 -97.56320,50.14235,0 -97.56261,50.14093,0 -97.56257,50.12683,0 -97.56207,50.12536,0 -97.56099,50.12423,0 -97.55912,50.12334,0 -97.55737,50.12300,0 -97.53507,50.12296,0 -97.53185,50.12225,0 -97.53032,50.12148,0 -97.45771,50.07422,0 -97.45626,50.07293,0 -97.44717,50.06100,0 -97.44558,50.05967,0 -97.44133,50.05759,0 -97.43025,50.05524,0 -97.42658,50.05383,0 -97.34654,50.00151,0 -97.34493,50.00012,0 -97.34422,49.99884,0 -97.34401,49.99488,0 -97.34355,49.99354,0 -97.34260,49.99238,0 -97.34119,49.99137,0 -97.33902,49.99052,0 -97.33678,49.99014,0 -97.32693,49.99015,0 -97.31781,49.98959,0 -97.31415,49.98871,0 -97.30984,49.98685,0 -97.30555,49.98890,0 -97.30271,49.98956,0 -97.30022,49.98975,0 -97.11503,49.98965,0 -97.11096,49.98857,0 -97.06179,49.96673,0 -97.04207,49.95703,0 -97.03536,49.95283,0 -97.03364,49.95092,0 -97.03270,49.94916,0 -97.03243,49.94764,0 -97.03319,49.94536,0 -97.03469,49.94333,0 -97.03440,49.94321,0 -97.03246,49.94591,0 -97.03062,49.94753,0 -97.02763,49.94820,0 -97.02481,49.94817,0 -97.01603,49.94546,0 -97.00282,49.94004,0 -96.99787,49.93883,0 -96.98427,49.93663,0 -96.98196,49.93590,0 -96.97907,49.93450,0 -96.97642,49.93231,0 -96.97482,49.92995,0 -96.96022,49.90256,0 -96.95911,49.89889,0 -96.95919,49.83944,0 -96.96011,49.83768,0 -96.97348,49.82430,0 -96.97694,49.82279,0 -96.98127,49.82251,0 -96.98127,49.82673,0 -96.97805,49.82673,0 -96.97731,49.82709,0 -96.97758,49.82848,0</coordinates></LineString></Placemark>
    <Placemark><name>VIA Rail · Thompson ↔ Churchill (schematic)</name><description>Overnight train both ways — departs Thompson 5:00 PM Oct 2, returns from Churchill 8:30 PM Oct 6. Line is schematic, not the surveyed track.</description><styleUrl>#railline</styleUrl><LineString><tessellate>1</tessellate><coordinates>-97.8300,55.7407,0 -97.1600,55.5900,0 -95.6500,56.0600,0 -94.7100,56.3500,0 -94.2000,56.5000,0 -94.1700,57.3700,0 -94.1746,58.7678,0</coordinates></LineString></Placemark>
  </Folder>
</Document>
</kml>
