<?xml version="1.0" encoding="UTF-8"?>
<gpx version="1.1" creator="polar-bears-2026 site" xmlns="http://www.topografix.com/GPX/1/1">
<metadata><name>Northern Lights &amp; Polar Bears 2026 — Caravan Itinerary</name><desc>Overnight campgrounds, venues and the driving route. 1286 mi / 2070 km in 8 legs.</desc></metadata>
<wpt lat="49.82852" lon="-96.97784"><name>01 Winnipeg — Town &amp; Country Campground</name><desc>Sep 13 – 14 · Days 1–2 · 56001 Murdock Rd, Springfield (Winnipeg)</desc><sym>Campground</sym></wpt>
<wpt lat="50.22880" lon="-99.45479"><name>02 Neepawa — Lions Riverbend Campground</name><desc>Sep 15 – 18 · Days 3–6 · Riverbend Park, Neepawa</desc><sym>Campground</sym></wpt>
<wpt lat="51.15245" lon="-100.05300"><name>03 Dauphin — Vermillion Park &amp; Campground</name><desc>Sep 19 – 22 · Days 7–10 · 2nd Ave NW, Dauphin</desc><sym>Campground</sym></wpt>
<wpt lat="52.10003" lon="-101.27551"><name>04 Swan River — Green Acres Campground</name><desc>Sep 23 – 25 · Days 11–13 · 312 Centennial Dr (Hwy 83A), Swan River</desc><sym>Campground</sym></wpt>
<wpt lat="53.82500" lon="-101.25420"><name>05 The Pas — The Pas Exhibition Grounds</name><desc>Sep 26 – 28 · Days 14–16 · The Pas — exact entrance not on map services; go by the parkers</desc><sym>Campground</sym></wpt>
<wpt lat="54.77184" lon="-101.83930"><name>06 Flin Flon — Flin Flon Campground</name><desc>Sep 29 · Day 17 · Tourist Bureau &amp; Campground, Hwy 10A, Flin Flon</desc><sym>Campground</sym></wpt>
<wpt lat="55.75643" lon="-97.83486"><name>07 Thompson — McCreedy Campground</name><desc>Sep 30 – Oct 1 · Oct 7 · Days 18–19 · 25 · Jasper Dr, Thompson</desc><sym>Campground</sym></wpt>
<wpt lat="58.77061" lon="-94.17252"><name>08 Churchill — Tundra Buggy Lodge &amp; Tundra Inn</name><desc>Oct 2 – 7 · Days 20–25 · Tundra Inn, 34 Franklin St, Churchill — by VIA Rail</desc><sym>Campground</sym></wpt>
<wpt lat="53.26057" lon="-99.41593"><name>09 Grand Rapids — Cook&#x27;s Campground &amp; Cabins</name><desc>Oct 8 · Day 26 · Hwy 6, Grand Rapids</desc><sym>Campground</sym></wpt>
<wpt lat="50.04000" lon="-99.31400"><name>Spud Plains Farm</name><desc>Day 4 · Sep 16 — Farm tour, carpool from Neepawa (27 mi) (approximate)</desc><sym>Flag, Blue</sym></wpt>
<wpt lat="50.22849" lon="-99.47920"><name>Farmery Estate Brewery</name><desc>Day 6 · Sep 18 — Brewery tours, Groups A &amp; B</desc><sym>Flag, Blue</sym></wpt>
<wpt lat="50.22905" lon="-99.46334"><name>Royal Canadian Legion, Neepawa</name><desc>Day 6 · Sep 18 — Catered dinner, 5:30 PM</desc><sym>Flag, Blue</sym></wpt>
<wpt lat="50.24986" lon="-99.83852"><name>Minnedosa</name><desc>Day 5 · Sep 17 — Optional stop on the way back from Galbraith Farms</desc><sym>Flag, Blue</sym></wpt>
<wpt lat="51.13509" lon="-100.06496"><name>Super 8 by Wyndham, Dauphin</name><desc>Day 8 · Sep 20 — Pysanky egg writing 1:30 · Ukrainian dinner 5:30 · dancers</desc><sym>Flag, Blue</sym></wpt>
<wpt lat="51.14190" lon="-100.06196"><name>Ukrainian Catholic Church of the Resurrection</name><desc>Day 8 · Sep 20 — Guided tour, 4:30 PM</desc><sym>Flag, Blue</sym></wpt>
<wpt lat="51.15036" lon="-100.05219"><name>Dauphin Rail Museum</name><desc>Day 9 · Sep 21 — First look at the Churchill train — Group B 1:00, Group A 2:00</desc><sym>Flag, Blue</sym></wpt>
<wpt lat="50.65763" lon="-99.97233"><name>Riding Mountain National Park — Wasagaming</name><desc>Day 10 · Sep 22 — Guided vehicle tour with Ryan Murray; shop Wasagaming, see the bison</desc><sym>Flag, Blue</sym></wpt>
<wpt lat="52.13277" lon="-101.27199"><name>Spruce Products Ltd</name><desc>Day 12 · Sep 24 — Mill tour — Group B 9:30, Group A 1:00</desc><sym>Flag, Blue</sym></wpt>
<wpt lat="52.02830" lon="-101.08200"><name>Pretty Valley Honey</name><desc>Day 13 · Sep 25 — Honey farm tour, 9:30 AM (near Minitonas)</desc><sym>Flag, Blue</sym></wpt>
<wpt lat="53.82203" lon="-101.19583"><name>Opasquia Trails boardwalk</name><desc>Day 15 · Sep 27 — Boardwalk walk, 1:00 PM, Groups A &amp; B</desc><sym>Flag, Blue</sym></wpt>
<wpt lat="53.82305" lon="-101.25281"><name>Sam Waller Museum</name><desc>Day 15 · Sep 27 — Guided tour, 3:00 PM</desc><sym>Flag, Blue</sym></wpt>
<wpt lat="53.72988" lon="-101.64747"><name>Round the Bend Farm</name><desc>Day 16 · Sep 28 — Blanket Exercise 2:30 · farm tour 4:00 · bison-kabob dinner 6:00 (731 Landels Rd)</desc><sym>Flag, Blue</sym></wpt>
<wpt lat="55.19670" lon="-98.39665"><name>Pisew Falls</name><desc>Day 18 · Sep 30 — Stop on the long haul to Thompson</desc><sym>Flag, Blue</sym></wpt>
<wpt lat="55.74963" lon="-97.86665"><name>University College of the North, Thompson</name><desc>Day 19 · Oct 1 — Community service — sort &amp; distribute goods, 10:00 AM</desc><sym>Flag, Blue</sym></wpt>
<wpt lat="55.73300" lon="-97.85488"><name>Heritage North Museum</name><desc>Day 19 · Oct 1 — Museum tour, 1:30 PM</desc><sym>Flag, Blue</sym></wpt>
<wpt lat="55.74238" lon="-97.85651"><name>Northern Inn &amp; Steakhouse</name><desc>Day 20 · Oct 2 — Group lunch before the train, 11:00 AM</desc><sym>Flag, Blue</sym></wpt>
<wpt lat="55.74066" lon="-97.83004"><name>VIA Rail station, Thompson</name><desc>Day 20 · Oct 2 · Day 25 · Oct 7 — Train departs 5:00 PM Oct 2 · returns noon Oct 7</desc><sym>Flag, Blue</sym></wpt>
<wpt lat="58.76780" lon="-94.17455"><name>VIA Rail station, Churchill</name><desc>Day 21 · Oct 3 · Day 24 · Oct 6 — Arrive 9:00 AM Oct 3 · night train out 8:30 PM Oct 6</desc><sym>Flag, Blue</sym></wpt>
<wpt lat="58.76913" lon="-94.17145"><name>Seaport Restaurant</name><desc>Day 21 · Oct 3 — Lunch on arrival — Group A 11:30, Group B 11:45</desc><sym>Flag, Blue</sym></wpt>
<wpt lat="58.77048" lon="-94.16683"><name>Itsanitaq Museum</name><desc>Days 21 &amp; 24 — Inuit carvings &amp; artifacts</desc><sym>Flag, Blue</sym></wpt>
<wpt lat="58.76832" lon="-94.16974"><name>Polar Bears International House</name><desc>Days 21 &amp; 24 — PBI interpretive centre</desc><sym>Flag, Blue</sym></wpt>
<wpt lat="58.77234" lon="-94.17352"><name>St. Paul&#x27;s Anglican Church</name><desc>Day 21 · Oct 3 — Community service drop-off, 2:00 PM</desc><sym>Flag, Blue</sym></wpt>
<wpt lat="58.77170" lon="-94.16870"><name>Town Centre Complex (Town Theatre)</name><desc>Day 21 · Oct 3 — Cultural presentation, 3:00 PM · Parks Canada Visitor Centre</desc><sym>Flag, Blue</sym></wpt>
<wpt lat="58.77045" lon="-94.17300"><name>The Ptarmigan</name><desc>Days 21, 23, 24 — Every Churchill meal in town — bus to the Tundra Buggy Dock leaves from here Oct 3</desc><sym>Flag, Blue</sym></wpt>
<wpt lat="58.76630" lon="-94.16578"><name>Wapusk Adventures</name><desc>Day 24 · Oct 6 — Dog sledding — Group A 9:00, Group B 10:00 (office &amp; store)</desc><sym>Flag, Blue</sym></wpt>
<wpt lat="58.76047" lon="-94.08676"><name>Miss Piggy plane wreck</name><desc>Day 21 · Oct 3 — On the arrival shuttle tour</desc><sym>Flag, Blue</sym></wpt>
<wpt lat="58.75325" lon="-94.07573"><name>Polar Bear Holding Facility</name><desc>Day 21 · Oct 3 — On the arrival shuttle tour</desc><sym>Flag, Blue</sym></wpt>
<wpt lat="58.76500" lon="-93.85000"><name>Tundra Buggy Lodge (Polar Bear Point)</name><desc>Days 21–23 · Oct 3–5 — Two nights on the tundra — Frontiers North positions the Lodge seasonally; pin is approximate (approximate)</desc><sym>Flag, Blue</sym></wpt>
<wpt lat="49.89065" lon="-97.13108"><name>Canadian Museum for Human Rights</name><desc>Day 29 · Oct 11 — Tour at 1:00 PM</desc><sym>Flag, Blue</sym></wpt>
<wpt lat="49.87144" lon="-97.24106"><name>Assiniboine Park Zoo — Journey to Churchill</name><desc>Day 30 · Oct 12 — Self-guided tour, 10:00 AM</desc><sym>Flag, Blue</sym></wpt>
<trk><name>Caravan driving route</name>
<trkseg><trkpt lat="49.82848" lon="-96.97758"/><trkpt lat="49.82709" lon="-96.97731"/><trkpt lat="49.82673" lon="-96.97805"/><trkpt lat="49.82673" lon="-96.98127"/><trkpt lat="49.82251" lon="-96.98127"/><trkpt lat="49.82256" lon="-97.02399"/><trkpt lat="49.82181" lon="-97.02905"/><trkpt lat="49.79103" lon="-97.11904"/><trkpt lat="49.78669" lon="-97.12936"/><trkpt lat="49.77022" lon="-97.17638"/><trkpt lat="49.76874" lon="-97.18210"/><trkpt lat="49.76825" lon="-97.18757"/><trkpt lat="49.76794" lon="-97.28694"/><trkpt lat="49.77038" lon="-97.30987"/><trkpt lat="49.77162" lon="-97.31405"/><trkpt lat="49.77381" lon="-97.31722"/><trkpt lat="49.78696" lon="-97.32809"/><trkpt lat="49.78966" lon="-97.32931"/><trkpt lat="49.85497" lon="-97.32269"/><trkpt lat="49.87165" lon="-97.32620"/><trkpt lat="49.88117" lon="-97.32530"/><trkpt lat="49.88187" lon="-97.32481"/><trkpt lat="49.88202" lon="-97.32400"/><trkpt lat="49.88139" lon="-97.32337"/><trkpt lat="49.88075" lon="-97.32444"/><trkpt lat="49.87633" lon="-97.36185"/><trkpt lat="49.87554" lon="-97.38524"/><trkpt lat="49.87561" lon="-97.39461"/><trkpt lat="49.87623" lon="-97.40659"/><trkpt lat="49.87759" lon="-97.41568"/><trkpt lat="49.87796" lon="-97.42184"/><trkpt lat="49.87922" lon="-97.43304"/><trkpt lat="49.88264" lon="-97.47552"/><trkpt lat="49.88763" lon="-97.50003"/><trkpt lat="49.88788" lon="-97.50238"/><trkpt lat="49.88680" lon="-97.52688"/><trkpt lat="49.88708" lon="-97.64785"/><trkpt lat="49.88733" lon="-97.65174"/><trkpt lat="49.92896" lon="-97.87538"/><trkpt lat="49.96699" lon="-98.08197"/><trkpt lat="49.97207" lon="-98.10125"/><trkpt lat="49.97262" lon="-98.10577"/><trkpt lat="49.97501" lon="-98.21179"/><trkpt lat="49.97521" lon="-98.21514"/><trkpt lat="49.97605" lon="-98.22009"/><trkpt lat="49.97595" lon="-98.22280"/><trkpt lat="49.97490" lon="-98.22747"/><trkpt lat="49.97372" lon="-98.22987"/><trkpt lat="49.97219" lon="-98.23137"/><trkpt lat="49.96336" lon="-98.23781"/><trkpt lat="49.96182" lon="-98.23989"/><trkpt lat="49.96106" lon="-98.24171"/><trkpt lat="49.95825" lon="-98.26370"/><trkpt lat="49.94684" lon="-98.29353"/><trkpt lat="49.94624" lon="-98.29644"/><trkpt lat="49.94640" lon="-98.30031"/><trkpt lat="49.96215" lon="-98.35118"/><trkpt lat="49.96350" lon="-98.35367"/><trkpt lat="49.96486" lon="-98.35525"/><trkpt lat="49.97023" lon="-98.35865"/><trkpt lat="49.97199" lon="-98.36030"/><trkpt lat="49.97363" lon="-98.36312"/><trkpt lat="49.97470" lon="-98.36686"/><trkpt lat="49.97514" lon="-98.37304"/><trkpt lat="49.97518" lon="-98.46644"/><trkpt lat="49.97542" lon="-98.46827"/><trkpt lat="49.97612" lon="-98.46873"/><trkpt lat="50.04979" lon="-98.46884"/><trkpt lat="50.05256" lon="-98.46974"/><trkpt lat="50.05994" lon="-98.47488"/><trkpt lat="50.06152" lon="-98.47643"/><trkpt lat="50.12193" lon="-98.56480"/><trkpt lat="50.12378" lon="-98.56940"/><trkpt lat="50.12538" lon="-98.57843"/><trkpt lat="50.13086" lon="-98.58869"/><trkpt lat="50.13171" lon="-98.58968"/><trkpt lat="50.13769" lon="-98.59444"/><trkpt lat="50.13880" lon="-98.59564"/><trkpt lat="50.13972" lon="-98.59729"/><trkpt lat="50.14059" lon="-98.60140"/><trkpt lat="50.14439" lon="-98.63909"/><trkpt lat="50.18078" lon="-98.74303"/><trkpt lat="50.18135" lon="-98.74764"/><trkpt lat="50.18131" lon="-98.77807"/><trkpt lat="50.18177" lon="-98.79139"/><trkpt lat="50.18276" lon="-98.79486"/><trkpt lat="50.18506" lon="-98.80091"/><trkpt lat="50.21092" lon="-98.89500"/><trkpt lat="50.21131" lon="-98.94446"/><trkpt lat="50.21222" lon="-98.94737"/><trkpt lat="50.21330" lon="-98.94901"/><trkpt lat="50.22339" lon="-98.95598"/><trkpt lat="50.22509" lon="-98.95893"/><trkpt lat="50.22576" lon="-98.96205"/><trkpt lat="50.22582" lon="-99.23281"/><trkpt lat="50.22510" lon="-99.27689"/><trkpt lat="50.22536" lon="-99.37962"/><trkpt lat="50.22612" lon="-99.40531"/><trkpt lat="50.22620" lon="-99.45479"/><trkpt lat="50.22880" lon="-99.45465"/></trkseg>
<trkseg><trkpt lat="50.22880" lon="-99.45465"/><trkpt lat="50.22845" lon="-99.45467"/><trkpt lat="50.22852" lon="-99.46642"/><trkpt lat="50.23592" lon="-99.46607"/><trkpt lat="50.23594" lon="-99.47736"/><trkpt lat="50.25508" lon="-99.47636"/><trkpt lat="50.31872" lon="-99.48172"/><trkpt lat="50.36517" lon="-99.48177"/><trkpt lat="50.36756" lon="-99.48146"/><trkpt lat="50.36872" lon="-99.48091"/><trkpt lat="50.37903" lon="-99.47128"/><trkpt lat="50.38014" lon="-99.47052"/><trkpt lat="50.38249" lon="-99.46981"/><trkpt lat="50.45993" lon="-99.46994"/><trkpt lat="50.57991" lon="-99.46780"/><trkpt lat="50.61084" lon="-99.47316"/><trkpt lat="50.63014" lon="-99.47335"/><trkpt lat="50.63226" lon="-99.47459"/><trkpt lat="50.63805" lon="-99.48337"/><trkpt lat="50.64014" lon="-99.48466"/><trkpt lat="50.76253" lon="-99.48537"/><trkpt lat="50.76439" lon="-99.48654"/><trkpt lat="50.76541" lon="-99.48787"/><trkpt lat="50.77443" lon="-99.50653"/><trkpt lat="50.77560" lon="-99.50785"/><trkpt lat="50.77734" lon="-99.50867"/><trkpt lat="50.94272" lon="-99.50875"/><trkpt lat="50.94486" lon="-99.50808"/><trkpt lat="50.95166" lon="-99.50175"/><trkpt lat="50.95379" lon="-99.50048"/><trkpt lat="51.03713" lon="-99.50044"/><trkpt lat="51.04632" lon="-99.50052"/><trkpt lat="51.04845" lon="-99.50104"/><trkpt lat="51.04960" lon="-99.50198"/><trkpt lat="51.05083" lon="-99.50390"/><trkpt lat="51.05173" lon="-99.50690"/><trkpt lat="51.05189" lon="-99.50880"/><trkpt lat="51.05166" lon="-99.79322"/><trkpt lat="51.07074" lon="-99.95160"/><trkpt lat="51.07196" lon="-99.95536"/><trkpt lat="51.08033" lon="-99.97083"/><trkpt lat="51.08129" lon="-99.97463"/><trkpt lat="51.08124" lon="-100.06210"/><trkpt lat="51.08139" lon="-100.06276"/><trkpt lat="51.08230" lon="-100.06322"/><trkpt lat="51.13780" lon="-100.06320"/><trkpt lat="51.13946" lon="-100.06216"/><trkpt lat="51.15044" lon="-100.04898"/><trkpt lat="51.15241" lon="-100.05305"/></trkseg>
<trkseg><trkpt lat="51.15241" lon="-100.05305"/><trkpt lat="51.15471" lon="-100.05812"/><trkpt lat="51.15503" lon="-100.06050"/><trkpt lat="51.15494" lon="-100.28835"/><trkpt lat="51.15566" lon="-100.29666"/><trkpt lat="51.15655" lon="-100.29748"/><trkpt lat="51.17782" lon="-100.29766"/><trkpt lat="51.18363" lon="-100.30204"/><trkpt lat="51.18826" lon="-100.30485"/><trkpt lat="51.19240" lon="-100.30892"/><trkpt lat="51.20200" lon="-100.31609"/><trkpt lat="51.20619" lon="-100.31987"/><trkpt lat="51.21032" lon="-100.32378"/><trkpt lat="51.21573" lon="-100.32971"/><trkpt lat="51.22008" lon="-100.33713"/><trkpt lat="51.22464" lon="-100.34155"/><trkpt lat="51.24446" lon="-100.35567"/><trkpt lat="51.25465" lon="-100.36170"/><trkpt lat="51.26095" lon="-100.36481"/><trkpt lat="51.26980" lon="-100.36838"/><trkpt lat="51.27623" lon="-100.37051"/><trkpt lat="51.28769" lon="-100.37363"/><trkpt lat="51.30250" lon="-100.37640"/><trkpt lat="51.30808" lon="-100.37704"/><trkpt lat="51.31142" lon="-100.37651"/><trkpt lat="51.31641" lon="-100.37654"/><trkpt lat="51.32339" lon="-100.37766"/><trkpt lat="51.33193" lon="-100.37738"/><trkpt lat="51.33412" lon="-100.37657"/><trkpt lat="51.34912" lon="-100.36269"/><trkpt lat="51.35072" lon="-100.36171"/><trkpt lat="51.36813" lon="-100.36073"/><trkpt lat="51.37935" lon="-100.35923"/><trkpt lat="51.38539" lon="-100.35787"/><trkpt lat="51.39268" lon="-100.35671"/><trkpt lat="51.39937" lon="-100.35468"/><trkpt lat="51.41168" lon="-100.35511"/><trkpt lat="51.41671" lon="-100.35355"/><trkpt lat="51.41919" lon="-100.35324"/><trkpt lat="51.42899" lon="-100.35633"/><trkpt lat="51.43534" lon="-100.35731"/><trkpt lat="51.44656" lon="-100.36019"/><trkpt lat="51.45165" lon="-100.36107"/><trkpt lat="51.45839" lon="-100.36436"/><trkpt lat="51.47272" lon="-100.36988"/><trkpt lat="51.48693" lon="-100.37679"/><trkpt lat="51.49519" lon="-100.37909"/><trkpt lat="51.50007" lon="-100.38129"/><trkpt lat="51.50583" lon="-100.38448"/><trkpt lat="51.50730" lon="-100.38634"/><trkpt lat="51.53052" lon="-100.42448"/><trkpt lat="51.53339" lon="-100.42679"/><trkpt lat="51.54222" lon="-100.43203"/><trkpt lat="51.56076" lon="-100.44208"/><trkpt lat="51.57235" lon="-100.44778"/><trkpt lat="51.57699" lon="-100.44966"/><trkpt lat="51.61211" lon="-100.46605"/><trkpt lat="51.62927" lon="-100.47271"/><trkpt lat="51.63877" lon="-100.47551"/><trkpt lat="51.65948" lon="-100.48483"/><trkpt lat="51.66396" lon="-100.48591"/><trkpt lat="51.67302" lon="-100.49130"/><trkpt lat="51.68518" lon="-100.49597"/><trkpt lat="51.69350" lon="-100.50025"/><trkpt lat="51.70215" lon="-100.50285"/><trkpt lat="51.71023" lon="-100.50870"/><trkpt lat="51.71602" lon="-100.51242"/><trkpt lat="51.72794" lon="-100.51808"/><trkpt lat="51.73884" lon="-100.52466"/><trkpt lat="51.74858" lon="-100.52977"/><trkpt lat="51.75840" lon="-100.53468"/><trkpt lat="51.76208" lon="-100.53617"/><trkpt lat="51.76713" lon="-100.53712"/><trkpt lat="51.77206" lon="-100.53864"/><trkpt lat="51.77766" lon="-100.54273"/><trkpt lat="51.78080" lon="-100.54575"/><trkpt lat="51.78824" lon="-100.55056"/><trkpt lat="51.79749" lon="-100.55589"/><trkpt lat="51.80126" lon="-100.56033"/><trkpt lat="51.80574" lon="-100.56375"/><trkpt lat="51.80753" lon="-100.56635"/><trkpt lat="51.81048" lon="-100.57540"/><trkpt lat="51.81140" lon="-100.57671"/><trkpt lat="51.81253" lon="-100.57756"/><trkpt lat="51.82099" lon="-100.58098"/><trkpt lat="51.82744" lon="-100.58107"/><trkpt lat="51.83081" lon="-100.58263"/><trkpt lat="51.83619" lon="-100.58398"/><trkpt lat="51.84439" lon="-100.58425"/><trkpt lat="51.84894" lon="-100.58593"/><trkpt lat="51.85473" lon="-100.58753"/><trkpt lat="51.85687" lon="-100.58881"/><trkpt lat="51.86139" lon="-100.59410"/><trkpt lat="51.86240" lon="-100.59490"/><trkpt lat="51.87016" lon="-100.59704"/><trkpt lat="51.87221" lon="-100.59791"/><trkpt lat="51.87381" lon="-100.59977"/><trkpt lat="51.88282" lon="-100.61398"/><trkpt lat="51.88580" lon="-100.61676"/><trkpt lat="51.88881" lon="-100.62171"/><trkpt lat="51.90187" lon="-100.63396"/><trkpt lat="51.91106" lon="-100.64378"/><trkpt lat="51.91625" lon="-100.64717"/><trkpt lat="51.93234" lon="-100.65591"/><trkpt lat="51.93825" lon="-100.65849"/><trkpt lat="51.94239" lon="-100.66132"/><trkpt lat="51.94602" lon="-100.66217"/><trkpt lat="51.94967" lon="-100.66252"/><trkpt lat="51.95660" lon="-100.66609"/><trkpt lat="51.95771" lon="-100.66675"/><trkpt lat="51.96050" lon="-100.67017"/><trkpt lat="51.96251" lon="-100.67209"/><trkpt lat="51.96574" lon="-100.67425"/><trkpt lat="51.96749" lon="-100.67462"/><trkpt lat="51.96769" lon="-100.67518"/><trkpt lat="51.96861" lon="-100.67527"/><trkpt lat="51.97263" lon="-100.67508"/><trkpt lat="51.97373" lon="-100.67433"/><trkpt lat="51.98904" lon="-100.65461"/><trkpt lat="51.98971" lon="-100.65306"/><trkpt lat="51.99084" lon="-100.64453"/><trkpt lat="51.99167" lon="-100.64309"/><trkpt lat="51.99307" lon="-100.64226"/><trkpt lat="51.99953" lon="-100.64520"/><trkpt lat="52.00581" lon="-100.64688"/><trkpt lat="52.01476" lon="-100.64801"/><trkpt lat="52.02698" lon="-100.64847"/><trkpt lat="52.03231" lon="-100.64972"/><trkpt lat="52.05301" lon="-100.64453"/><trkpt lat="52.05592" lon="-100.64451"/><trkpt lat="52.06418" lon="-100.64751"/><trkpt lat="52.06632" lon="-100.64861"/><trkpt lat="52.07869" lon="-100.66016"/><trkpt lat="52.07994" lon="-100.66208"/><trkpt lat="52.08114" lon="-100.66526"/><trkpt lat="52.08504" lon="-100.68655"/><trkpt lat="52.08600" lon="-100.68970"/><trkpt lat="52.08757" lon="-100.69189"/><trkpt lat="52.09674" lon="-100.70048"/><trkpt lat="52.09823" lon="-100.70296"/><trkpt lat="52.10164" lon="-100.71949"/><trkpt lat="52.10236" lon="-100.72486"/><trkpt lat="52.10028" lon="-100.74132"/><trkpt lat="52.09965" lon="-100.75442"/><trkpt lat="52.10000" lon="-100.87233"/><trkpt lat="52.09963" lon="-100.98947"/><trkpt lat="52.10022" lon="-101.13973"/><trkpt lat="52.09995" lon="-101.17143"/><trkpt lat="52.10043" lon="-101.17513"/><trkpt lat="52.10177" lon="-101.17800"/><trkpt lat="52.10532" lon="-101.18216"/><trkpt lat="52.10665" lon="-101.18505"/><trkpt lat="52.10712" lon="-101.18866"/><trkpt lat="52.10713" lon="-101.21469"/><trkpt lat="52.10627" lon="-101.22200"/><trkpt lat="52.10719" lon="-101.23093"/><trkpt lat="52.10718" lon="-101.24895"/><trkpt lat="52.10711" lon="-101.25804"/><trkpt lat="52.10430" lon="-101.27532"/><trkpt lat="52.10003" lon="-101.27534"/></trkseg>
<trkseg><trkpt lat="52.10003" lon="-101.27534"/><trkpt lat="52.10430" lon="-101.27532"/><trkpt lat="52.10711" lon="-101.25804"/><trkpt lat="52.10713" lon="-101.25148"/><trkpt lat="52.22570" lon="-101.25153"/><trkpt lat="52.22677" lon="-101.25135"/><trkpt lat="52.22857" lon="-101.25009"/><trkpt lat="52.22956" lon="-101.24870"/><trkpt lat="52.23060" lon="-101.24586"/><trkpt lat="52.23090" lon="-101.24306"/><trkpt lat="52.23090" lon="-101.22771"/><trkpt lat="52.31806" lon="-101.22774"/><trkpt lat="52.31815" lon="-101.22351"/><trkpt lat="52.32139" lon="-101.21874"/><trkpt lat="52.32211" lon="-101.21710"/><trkpt lat="52.32154" lon="-101.21442"/><trkpt lat="52.32314" lon="-101.21280"/><trkpt lat="52.32410" lon="-101.21125"/><trkpt lat="52.33206" lon="-101.19073"/><trkpt lat="52.33370" lon="-101.18725"/><trkpt lat="52.33593" lon="-101.18477"/><trkpt lat="52.36667" lon="-101.15501"/><trkpt lat="52.38256" lon="-101.13035"/><trkpt lat="52.38476" lon="-101.12794"/><trkpt lat="52.38602" lon="-101.12722"/><trkpt lat="52.39716" lon="-101.12344"/><trkpt lat="52.49394" lon="-101.09171"/><trkpt lat="52.49762" lon="-101.09100"/><trkpt lat="52.55151" lon="-101.09154"/><trkpt lat="52.55419" lon="-101.09136"/><trkpt lat="52.56771" lon="-101.08818"/><trkpt lat="52.57037" lon="-101.08794"/><trkpt lat="52.64736" lon="-101.10074"/><trkpt lat="52.64975" lon="-101.10196"/><trkpt lat="52.65824" lon="-101.10892"/><trkpt lat="52.65997" lon="-101.10920"/><trkpt lat="52.66139" lon="-101.10866"/><trkpt lat="52.66266" lon="-101.10760"/><trkpt lat="52.66638" lon="-101.09977"/><trkpt lat="52.66812" lon="-101.09753"/><trkpt lat="52.67041" lon="-101.09723"/><trkpt lat="52.67254" lon="-101.09911"/><trkpt lat="52.68099" lon="-101.10905"/><trkpt lat="52.68863" lon="-101.11298"/><trkpt lat="52.70008" lon="-101.11493"/><trkpt lat="52.70247" lon="-101.11508"/><trkpt lat="52.73536" lon="-101.11501"/><trkpt lat="52.73687" lon="-101.11435"/><trkpt lat="52.73838" lon="-101.11274"/><trkpt lat="52.73956" lon="-101.11003"/><trkpt lat="52.74014" lon="-101.10190"/><trkpt lat="52.74127" lon="-101.09819"/><trkpt lat="52.74527" lon="-101.09288"/><trkpt lat="52.74765" lon="-101.09128"/><trkpt lat="52.75024" lon="-101.09094"/><trkpt lat="52.76083" lon="-101.09095"/><trkpt lat="52.76333" lon="-101.09009"/><trkpt lat="52.76777" lon="-101.08600"/><trkpt lat="52.76979" lon="-101.08352"/><trkpt lat="52.78572" lon="-101.05526"/><trkpt lat="52.79174" lon="-101.04227"/><trkpt lat="52.79343" lon="-101.04058"/><trkpt lat="52.79480" lon="-101.04005"/><trkpt lat="52.79784" lon="-101.03966"/><trkpt lat="52.79930" lon="-101.03979"/><trkpt lat="52.80050" lon="-101.04044"/><trkpt lat="52.81227" lon="-101.05296"/><trkpt lat="52.81685" lon="-101.05664"/><trkpt lat="52.81930" lon="-101.05741"/><trkpt lat="52.82173" lon="-101.05709"/><trkpt lat="52.82401" lon="-101.05608"/><trkpt lat="52.83485" lon="-101.04598"/><trkpt lat="52.83721" lon="-101.04462"/><trkpt lat="52.83969" lon="-101.04454"/><trkpt lat="52.85376" lon="-101.05235"/><trkpt lat="52.85545" lon="-101.05297"/><trkpt lat="52.85925" lon="-101.05265"/><trkpt lat="52.88167" lon="-101.04841"/><trkpt lat="52.88293" lon="-101.04750"/><trkpt lat="52.88427" lon="-101.04560"/><trkpt lat="52.88977" lon="-101.03064"/><trkpt lat="52.89182" lon="-101.02742"/><trkpt lat="52.89444" lon="-101.02561"/><trkpt lat="52.90539" lon="-101.02298"/><trkpt lat="52.92422" lon="-101.02071"/><trkpt lat="52.92690" lon="-101.02088"/><trkpt lat="52.95518" lon="-101.03254"/><trkpt lat="52.95828" lon="-101.03369"/><trkpt lat="52.96099" lon="-101.03345"/><trkpt lat="52.97798" lon="-101.02841"/><trkpt lat="52.98022" lon="-101.02663"/><trkpt lat="52.98216" lon="-101.02371"/><trkpt lat="52.99666" lon="-101.00000"/><trkpt lat="52.99816" lon="-100.99878"/><trkpt lat="52.99998" lon="-100.99800"/><trkpt lat="53.00616" lon="-100.99762"/><trkpt lat="53.00752" lon="-100.99777"/><trkpt lat="53.00864" lon="-100.99828"/><trkpt lat="53.01248" lon="-101.00086"/><trkpt lat="53.01446" lon="-101.00320"/><trkpt lat="53.01814" lon="-101.00886"/><trkpt lat="53.01947" lon="-101.01229"/><trkpt lat="53.02244" lon="-101.02391"/><trkpt lat="53.02280" lon="-101.02814"/><trkpt lat="53.02330" lon="-101.05402"/><trkpt lat="53.02401" lon="-101.05796"/><trkpt lat="53.02512" lon="-101.06175"/><trkpt lat="53.02680" lon="-101.06490"/><trkpt lat="53.03732" lon="-101.08147"/><trkpt lat="53.03920" lon="-101.08342"/><trkpt lat="53.04904" lon="-101.08746"/><trkpt lat="53.05927" lon="-101.09260"/><trkpt lat="53.06157" lon="-101.09461"/><trkpt lat="53.06332" lon="-101.09772"/><trkpt lat="53.06581" lon="-101.10515"/><trkpt lat="53.06760" lon="-101.10821"/><trkpt lat="53.06990" lon="-101.11013"/><trkpt lat="53.07251" lon="-101.11075"/><trkpt lat="53.12521" lon="-101.11281"/><trkpt lat="53.12773" lon="-101.11267"/><trkpt lat="53.13007" lon="-101.11136"/><trkpt lat="53.14356" lon="-101.09855"/><trkpt lat="53.14576" lon="-101.09664"/><trkpt lat="53.14732" lon="-101.09588"/><trkpt lat="53.17510" lon="-101.09409"/><trkpt lat="53.22070" lon="-101.08758"/><trkpt lat="53.24197" lon="-101.08968"/><trkpt lat="53.24458" lon="-101.08925"/><trkpt lat="53.24691" lon="-101.08743"/><trkpt lat="53.26755" lon="-101.06104"/><trkpt lat="53.28171" lon="-101.04835"/><trkpt lat="53.30436" lon="-101.03558"/><trkpt lat="53.30697" lon="-101.03536"/><trkpt lat="53.31750" lon="-101.03738"/><trkpt lat="53.31991" lon="-101.03843"/><trkpt lat="53.32198" lon="-101.04058"/><trkpt lat="53.33624" lon="-101.05832"/><trkpt lat="53.35125" lon="-101.07274"/><trkpt lat="53.35304" lon="-101.07478"/><trkpt lat="53.35457" lon="-101.07781"/><trkpt lat="53.35540" lon="-101.08104"/><trkpt lat="53.35965" lon="-101.10474"/><trkpt lat="53.35985" lon="-101.12589"/><trkpt lat="53.36627" lon="-101.17255"/><trkpt lat="53.36729" lon="-101.17647"/><trkpt lat="53.37151" lon="-101.18709"/><trkpt lat="53.37306" lon="-101.19504"/><trkpt lat="53.37425" lon="-101.20575"/><trkpt lat="53.37524" lon="-101.21145"/><trkpt lat="53.37666" lon="-101.21509"/><trkpt lat="53.38018" lon="-101.22126"/><trkpt lat="53.38130" lon="-101.22501"/><trkpt lat="53.39102" lon="-101.27321"/><trkpt lat="53.39193" lon="-101.27711"/><trkpt lat="53.39575" lon="-101.28819"/><trkpt lat="53.39671" lon="-101.29201"/><trkpt lat="53.39848" lon="-101.30380"/><trkpt lat="53.39933" lon="-101.30749"/><trkpt lat="53.40325" lon="-101.31550"/><trkpt lat="53.40428" lon="-101.31692"/><trkpt lat="53.42216" lon="-101.33512"/><trkpt lat="53.42487" lon="-101.33737"/><trkpt lat="53.42630" lon="-101.33791"/><trkpt lat="53.43915" lon="-101.33737"/><trkpt lat="53.44172" lon="-101.33841"/><trkpt lat="53.45799" lon="-101.34786"/><trkpt lat="53.46994" lon="-101.35274"/><trkpt lat="53.47235" lon="-101.35429"/><trkpt lat="53.47469" lon="-101.35622"/><trkpt lat="53.48149" lon="-101.36592"/><trkpt lat="53.48490" lon="-101.37235"/><trkpt lat="53.48716" lon="-101.37818"/><trkpt lat="53.48914" lon="-101.38105"/><trkpt lat="53.51763" lon="-101.40410"/><trkpt lat="53.53637" lon="-101.42464"/><trkpt lat="53.53867" lon="-101.42632"/><trkpt lat="53.54116" lon="-101.42667"/><trkpt lat="53.54359" lon="-101.42577"/><trkpt lat="53.57090" lon="-101.41204"/><trkpt lat="53.57326" lon="-101.41112"/><trkpt lat="53.57561" lon="-101.41129"/><trkpt lat="53.59056" lon="-101.41457"/><trkpt lat="53.59188" lon="-101.41453"/><trkpt lat="53.59337" lon="-101.41401"/><trkpt lat="53.59589" lon="-101.41176"/><trkpt lat="53.59738" lon="-101.40913"/><trkpt lat="53.59951" lon="-101.40318"/><trkpt lat="53.60106" lon="-101.40054"/><trkpt lat="53.60555" lon="-101.39580"/><trkpt lat="53.61052" lon="-101.39361"/><trkpt lat="53.61241" lon="-101.39175"/><trkpt lat="53.61949" lon="-101.37634"/><trkpt lat="53.62907" lon="-101.36321"/><trkpt lat="53.63213" lon="-101.35679"/><trkpt lat="53.63515" lon="-101.35161"/><trkpt lat="53.63865" lon="-101.34451"/><trkpt lat="53.64245" lon="-101.33574"/><trkpt lat="53.64947" lon="-101.32272"/><trkpt lat="53.65024" lon="-101.32072"/><trkpt lat="53.65147" lon="-101.31538"/><trkpt lat="53.65961" lon="-101.29194"/><trkpt lat="53.67131" lon="-101.27024"/><trkpt lat="53.67402" lon="-101.26344"/><trkpt lat="53.67624" lon="-101.25907"/><trkpt lat="53.67849" lon="-101.25578"/><trkpt lat="53.68292" lon="-101.25100"/><trkpt lat="53.68644" lon="-101.24597"/><trkpt lat="53.71462" lon="-101.21825"/><trkpt lat="53.71680" lon="-101.21644"/><trkpt lat="53.72557" lon="-101.21147"/><trkpt lat="53.72781" lon="-101.21126"/><trkpt lat="53.72877" lon="-101.21151"/><trkpt lat="53.74491" lon="-101.21901"/><trkpt lat="53.75974" lon="-101.23090"/><trkpt lat="53.76237" lon="-101.23208"/><trkpt lat="53.76403" lon="-101.23204"/><trkpt lat="53.77500" lon="-101.22875"/><trkpt lat="53.78500" lon="-101.22633"/><trkpt lat="53.78744" lon="-101.22655"/><trkpt lat="53.79068" lon="-101.22838"/><trkpt lat="53.79225" lon="-101.23035"/><trkpt lat="53.79308" lon="-101.23237"/><trkpt lat="53.79440" lon="-101.23764"/><trkpt lat="53.79550" lon="-101.24027"/><trkpt lat="53.80047" lon="-101.24925"/><trkpt lat="53.80207" lon="-101.25106"/><trkpt lat="53.80353" lon="-101.25176"/><trkpt lat="53.80506" lon="-101.25203"/><trkpt lat="53.81819" lon="-101.24938"/><trkpt lat="53.81985" lon="-101.24873"/><trkpt lat="53.82489" lon="-101.25447"/></trkseg>
<trkseg><trkpt lat="53.82489" lon="-101.25447"/><trkpt lat="53.82542" lon="-101.25510"/><trkpt lat="53.82605" lon="-101.25519"/><trkpt lat="53.82816" lon="-101.25070"/><trkpt lat="53.82850" lon="-101.25044"/><trkpt lat="53.82882" lon="-101.25062"/><trkpt lat="53.84021" lon="-101.26964"/><trkpt lat="53.84151" lon="-101.27330"/><trkpt lat="53.84933" lon="-101.31100"/><trkpt lat="53.85032" lon="-101.31355"/><trkpt lat="53.85165" lon="-101.31564"/><trkpt lat="53.85322" lon="-101.31719"/><trkpt lat="53.85495" lon="-101.31806"/><trkpt lat="53.85631" lon="-101.31826"/><trkpt lat="53.85811" lon="-101.31790"/><trkpt lat="53.92142" lon="-101.29322"/><trkpt lat="53.92415" lon="-101.29171"/><trkpt lat="53.92611" lon="-101.28938"/><trkpt lat="53.93432" lon="-101.27746"/><trkpt lat="53.93561" lon="-101.27355"/><trkpt lat="53.93827" lon="-101.25776"/><trkpt lat="53.93994" lon="-101.25392"/><trkpt lat="53.94236" lon="-101.25144"/><trkpt lat="53.94469" lon="-101.25070"/><trkpt lat="53.97173" lon="-101.25072"/><trkpt lat="53.97425" lon="-101.25096"/><trkpt lat="53.97715" lon="-101.25211"/><trkpt lat="53.97942" lon="-101.25376"/><trkpt lat="54.00476" lon="-101.27917"/><trkpt lat="54.00714" lon="-101.28065"/><trkpt lat="54.05308" lon="-101.29827"/><trkpt lat="54.13385" lon="-101.35152"/><trkpt lat="54.13626" lon="-101.35273"/><trkpt lat="54.14385" lon="-101.35526"/><trkpt lat="54.14636" lon="-101.35657"/><trkpt lat="54.15114" lon="-101.36021"/><trkpt lat="54.18128" lon="-101.36045"/><trkpt lat="54.23879" lon="-101.36033"/><trkpt lat="54.24098" lon="-101.36067"/><trkpt lat="54.31892" lon="-101.40273"/><trkpt lat="54.32142" lon="-101.40331"/><trkpt lat="54.36315" lon="-101.38524"/><trkpt lat="54.39395" lon="-101.37834"/><trkpt lat="54.41909" lon="-101.36256"/><trkpt lat="54.42139" lon="-101.36227"/><trkpt lat="54.46565" lon="-101.38125"/><trkpt lat="54.46826" lon="-101.38134"/><trkpt lat="54.57124" lon="-101.37360"/><trkpt lat="54.57389" lon="-101.37329"/><trkpt lat="54.58018" lon="-101.37111"/><trkpt lat="54.58125" lon="-101.37123"/><trkpt lat="54.58284" lon="-101.37220"/><trkpt lat="54.58776" lon="-101.37949"/><trkpt lat="54.58845" lon="-101.37985"/><trkpt lat="54.59098" lon="-101.37969"/><trkpt lat="54.59366" lon="-101.37575"/><trkpt lat="54.59601" lon="-101.37459"/><trkpt lat="54.59859" lon="-101.37372"/><trkpt lat="54.60193" lon="-101.37419"/><trkpt lat="54.60350" lon="-101.37569"/><trkpt lat="54.60567" lon="-101.37865"/><trkpt lat="54.60749" lon="-101.38183"/><trkpt lat="54.60912" lon="-101.38564"/><trkpt lat="54.61045" lon="-101.38751"/><trkpt lat="54.61894" lon="-101.39001"/><trkpt lat="54.62120" lon="-101.38955"/><trkpt lat="54.62629" lon="-101.38638"/><trkpt lat="54.63651" lon="-101.38120"/><trkpt lat="54.63874" lon="-101.38077"/><trkpt lat="54.63961" lon="-101.38118"/><trkpt lat="54.64090" lon="-101.38268"/><trkpt lat="54.64178" lon="-101.38504"/><trkpt lat="54.64398" lon="-101.39557"/><trkpt lat="54.64677" lon="-101.43737"/><trkpt lat="54.64922" lon="-101.45077"/><trkpt lat="54.64976" lon="-101.45530"/><trkpt lat="54.64781" lon="-101.47344"/><trkpt lat="54.64850" lon="-101.47764"/><trkpt lat="54.64970" lon="-101.48050"/><trkpt lat="54.65565" lon="-101.49135"/><trkpt lat="54.65684" lon="-101.49443"/><trkpt lat="54.65763" lon="-101.49982"/><trkpt lat="54.65775" lon="-101.51264"/><trkpt lat="54.65297" lon="-101.55512"/><trkpt lat="54.65200" lon="-101.56174"/><trkpt lat="54.64865" lon="-101.57350"/><trkpt lat="54.64834" lon="-101.57787"/><trkpt lat="54.64849" lon="-101.57996"/><trkpt lat="54.64910" lon="-101.58310"/><trkpt lat="54.65017" lon="-101.58597"/><trkpt lat="54.66139" lon="-101.60467"/><trkpt lat="54.66290" lon="-101.60818"/><trkpt lat="54.66623" lon="-101.61954"/><trkpt lat="54.66833" lon="-101.62415"/><trkpt lat="54.67559" lon="-101.63644"/><trkpt lat="54.67618" lon="-101.63922"/><trkpt lat="54.67620" lon="-101.64127"/><trkpt lat="54.67477" lon="-101.65168"/><trkpt lat="54.67665" lon="-101.65869"/><trkpt lat="54.67673" lon="-101.67020"/><trkpt lat="54.67733" lon="-101.67275"/><trkpt lat="54.68002" lon="-101.67677"/><trkpt lat="54.68124" lon="-101.67781"/><trkpt lat="54.68211" lon="-101.67784"/><trkpt lat="54.68829" lon="-101.67552"/><trkpt lat="54.68909" lon="-101.67565"/><trkpt lat="54.69007" lon="-101.67690"/><trkpt lat="54.69237" lon="-101.68229"/><trkpt lat="54.69298" lon="-101.68672"/><trkpt lat="54.69123" lon="-101.71050"/><trkpt lat="54.69234" lon="-101.71500"/><trkpt lat="54.69566" lon="-101.72514"/><trkpt lat="54.69590" lon="-101.72707"/><trkpt lat="54.69579" lon="-101.72901"/><trkpt lat="54.69382" lon="-101.73977"/><trkpt lat="54.69400" lon="-101.74349"/><trkpt lat="54.69664" lon="-101.74976"/><trkpt lat="54.70058" lon="-101.76058"/><trkpt lat="54.70284" lon="-101.76790"/><trkpt lat="54.70338" lon="-101.76901"/><trkpt lat="54.70515" lon="-101.77076"/><trkpt lat="54.70740" lon="-101.77486"/><trkpt lat="54.70894" lon="-101.77602"/><trkpt lat="54.71380" lon="-101.77724"/><trkpt lat="54.71491" lon="-101.77720"/><trkpt lat="54.71826" lon="-101.77610"/><trkpt lat="54.71975" lon="-101.77651"/><trkpt lat="54.72604" lon="-101.78218"/><trkpt lat="54.73356" lon="-101.79195"/><trkpt lat="54.73593" lon="-101.79435"/><trkpt lat="54.74253" lon="-101.79902"/><trkpt lat="54.74814" lon="-101.80061"/><trkpt lat="54.74980" lon="-101.80168"/><trkpt lat="54.75312" lon="-101.80673"/><trkpt lat="54.75496" lon="-101.80858"/><trkpt lat="54.75833" lon="-101.81095"/><trkpt lat="54.75982" lon="-101.81282"/><trkpt lat="54.76689" lon="-101.82854"/><trkpt lat="54.76927" lon="-101.83514"/><trkpt lat="54.76990" lon="-101.83608"/><trkpt lat="54.76935" lon="-101.83952"/><trkpt lat="54.77086" lon="-101.83987"/><trkpt lat="54.77185" lon="-101.83962"/></trkseg>
<trkseg><trkpt lat="54.77185" lon="-101.83962"/><trkpt lat="54.77086" lon="-101.83987"/><trkpt lat="54.76935" lon="-101.83952"/><trkpt lat="54.76967" lon="-101.83726"/><trkpt lat="54.76946" lon="-101.83563"/><trkpt lat="54.76689" lon="-101.82854"/><trkpt lat="54.75982" lon="-101.81282"/><trkpt lat="54.75833" lon="-101.81095"/><trkpt lat="54.75496" lon="-101.80858"/><trkpt lat="54.75312" lon="-101.80673"/><trkpt lat="54.74980" lon="-101.80168"/><trkpt lat="54.74814" lon="-101.80061"/><trkpt lat="54.74253" lon="-101.79902"/><trkpt lat="54.73593" lon="-101.79435"/><trkpt lat="54.73356" lon="-101.79195"/><trkpt lat="54.72604" lon="-101.78218"/><trkpt lat="54.71975" lon="-101.77651"/><trkpt lat="54.71826" lon="-101.77610"/><trkpt lat="54.71491" lon="-101.77720"/><trkpt lat="54.71380" lon="-101.77724"/><trkpt lat="54.70894" lon="-101.77602"/><trkpt lat="54.70740" lon="-101.77486"/><trkpt lat="54.70515" lon="-101.77076"/><trkpt lat="54.70338" lon="-101.76901"/><trkpt lat="54.70284" lon="-101.76790"/><trkpt lat="54.70058" lon="-101.76058"/><trkpt lat="54.69664" lon="-101.74976"/><trkpt lat="54.69400" lon="-101.74349"/><trkpt lat="54.69382" lon="-101.73977"/><trkpt lat="54.69579" lon="-101.72901"/><trkpt lat="54.69590" lon="-101.72707"/><trkpt lat="54.69566" lon="-101.72514"/><trkpt lat="54.69234" lon="-101.71500"/><trkpt lat="54.69123" lon="-101.71050"/><trkpt lat="54.69298" lon="-101.68672"/><trkpt lat="54.69237" lon="-101.68229"/><trkpt lat="54.69007" lon="-101.67690"/><trkpt lat="54.68909" lon="-101.67565"/><trkpt lat="54.68829" lon="-101.67552"/><trkpt lat="54.68211" lon="-101.67784"/><trkpt lat="54.68124" lon="-101.67781"/><trkpt lat="54.68002" lon="-101.67677"/><trkpt lat="54.67733" lon="-101.67275"/><trkpt lat="54.67673" lon="-101.67020"/><trkpt lat="54.67665" lon="-101.65869"/><trkpt lat="54.67477" lon="-101.65168"/><trkpt lat="54.67620" lon="-101.64127"/><trkpt lat="54.67618" lon="-101.63922"/><trkpt lat="54.67559" lon="-101.63644"/><trkpt lat="54.66833" lon="-101.62415"/><trkpt lat="54.66623" lon="-101.61954"/><trkpt lat="54.66290" lon="-101.60818"/><trkpt lat="54.66139" lon="-101.60467"/><trkpt lat="54.65017" lon="-101.58597"/><trkpt lat="54.64910" lon="-101.58310"/><trkpt lat="54.64849" lon="-101.57996"/><trkpt lat="54.64834" lon="-101.57787"/><trkpt lat="54.64865" lon="-101.57350"/><trkpt lat="54.65200" lon="-101.56174"/><trkpt lat="54.65297" lon="-101.55512"/><trkpt lat="54.65775" lon="-101.51264"/><trkpt lat="54.65763" lon="-101.49982"/><trkpt lat="54.65684" lon="-101.49443"/><trkpt lat="54.65565" lon="-101.49135"/><trkpt lat="54.64970" lon="-101.48050"/><trkpt lat="54.64850" lon="-101.47764"/><trkpt lat="54.64781" lon="-101.47344"/><trkpt lat="54.64976" lon="-101.45530"/><trkpt lat="54.64922" lon="-101.45077"/><trkpt lat="54.64677" lon="-101.43737"/><trkpt lat="54.64398" lon="-101.39557"/><trkpt lat="54.64178" lon="-101.38504"/><trkpt lat="54.64090" lon="-101.38268"/><trkpt lat="54.63961" lon="-101.38118"/><trkpt lat="54.63874" lon="-101.38077"/><trkpt lat="54.63651" lon="-101.38120"/><trkpt lat="54.62629" lon="-101.38638"/><trkpt lat="54.62120" lon="-101.38955"/><trkpt lat="54.61894" lon="-101.39001"/><trkpt lat="54.61045" lon="-101.38751"/><trkpt lat="54.60912" lon="-101.38564"/><trkpt lat="54.60749" lon="-101.38183"/><trkpt lat="54.60567" lon="-101.37865"/><trkpt lat="54.60350" lon="-101.37569"/><trkpt lat="54.60193" lon="-101.37419"/><trkpt lat="54.59859" lon="-101.37372"/><trkpt lat="54.59601" lon="-101.37459"/><trkpt lat="54.59366" lon="-101.37575"/><trkpt lat="54.59098" lon="-101.37969"/><trkpt lat="54.58845" lon="-101.37985"/><trkpt lat="54.58776" lon="-101.37949"/><trkpt lat="54.58284" lon="-101.37220"/><trkpt lat="54.58125" lon="-101.37123"/><trkpt lat="54.58018" lon="-101.37111"/><trkpt lat="54.57389" lon="-101.37329"/><trkpt lat="54.57124" lon="-101.37360"/><trkpt lat="54.46826" lon="-101.38134"/><trkpt lat="54.46565" lon="-101.38125"/><trkpt lat="54.44040" lon="-101.37037"/><trkpt lat="54.45358" lon="-101.31971"/><trkpt lat="54.45461" lon="-101.31533"/><trkpt lat="54.45522" lon="-101.31076"/><trkpt lat="54.45537" lon="-101.30600"/><trkpt lat="54.45499" lon="-101.30140"/><trkpt lat="54.45004" lon="-101.26669"/><trkpt lat="54.45012" lon="-101.26219"/><trkpt lat="54.45110" lon="-101.25791"/><trkpt lat="54.46034" lon="-101.23916"/><trkpt lat="54.47603" lon="-101.21765"/><trkpt lat="54.50776" lon="-101.15622"/><trkpt lat="54.51627" lon="-101.13413"/><trkpt lat="54.52335" lon="-101.11473"/><trkpt lat="54.52430" lon="-101.11132"/><trkpt lat="54.53041" lon="-101.07672"/><trkpt lat="54.53153" lon="-101.07285"/><trkpt lat="54.56106" lon="-100.98886"/><trkpt lat="54.58607" lon="-100.89694"/><trkpt lat="54.58718" lon="-100.89262"/><trkpt lat="54.58791" lon="-100.88803"/><trkpt lat="54.59045" lon="-100.82043"/><trkpt lat="54.59692" lon="-100.70270"/><trkpt lat="54.59668" lon="-100.69865"/><trkpt lat="54.59538" lon="-100.69175"/><trkpt lat="54.57923" lon="-100.64538"/><trkpt lat="54.57815" lon="-100.64160"/><trkpt lat="54.57747" lon="-100.63740"/><trkpt lat="54.57716" lon="-100.63316"/><trkpt lat="54.57726" lon="-100.62797"/><trkpt lat="54.58210" lon="-100.50262"/><trkpt lat="54.58196" lon="-100.49936"/><trkpt lat="54.58116" lon="-100.49352"/><trkpt lat="54.58012" lon="-100.48956"/><trkpt lat="54.56459" lon="-100.45217"/><trkpt lat="54.56332" lon="-100.44866"/><trkpt lat="54.56177" lon="-100.44085"/><trkpt lat="54.56161" lon="-100.43316"/><trkpt lat="54.56427" lon="-100.37753"/><trkpt lat="54.56459" lon="-100.37287"/><trkpt lat="54.56534" lon="-100.36847"/><trkpt lat="54.56647" lon="-100.36444"/><trkpt lat="54.56790" lon="-100.36091"/><trkpt lat="54.59006" lon="-100.32079"/><trkpt lat="54.59286" lon="-100.31482"/><trkpt lat="54.60901" lon="-100.25162"/><trkpt lat="54.61002" lon="-100.24653"/><trkpt lat="54.61038" lon="-100.24208"/><trkpt lat="54.61032" lon="-100.23756"/><trkpt lat="54.60621" lon="-100.20305"/><trkpt lat="54.60601" lon="-100.19623"/><trkpt lat="54.60671" lon="-100.18988"/><trkpt lat="54.60769" lon="-100.18596"/><trkpt lat="54.62208" lon="-100.14040"/><trkpt lat="54.62304" lon="-100.13612"/><trkpt lat="54.62358" lon="-100.13142"/><trkpt lat="54.62233" lon="-100.04080"/><trkpt lat="54.62244" lon="-100.03628"/><trkpt lat="54.62294" lon="-100.03203"/><trkpt lat="54.62381" lon="-100.02807"/><trkpt lat="54.63026" lon="-100.00777"/><trkpt lat="54.63112" lon="-100.00325"/><trkpt lat="54.63382" lon="-99.98118"/><trkpt lat="54.63464" lon="-99.97731"/><trkpt lat="54.63685" lon="-99.97107"/><trkpt lat="54.64634" lon="-99.94994"/><trkpt lat="54.64756" lon="-99.94630"/><trkpt lat="54.64843" lon="-99.94238"/><trkpt lat="54.64893" lon="-99.93833"/><trkpt lat="54.65120" lon="-99.89624"/><trkpt lat="54.65111" lon="-99.89235"/><trkpt lat="54.65034" lon="-99.88857"/><trkpt lat="54.64753" lon="-99.88158"/><trkpt lat="54.64510" lon="-99.86998"/><trkpt lat="54.64358" lon="-99.86705"/><trkpt lat="54.64039" lon="-99.86260"/><trkpt lat="54.63914" lon="-99.85923"/><trkpt lat="54.63715" lon="-99.85156"/><trkpt lat="54.63650" lon="-99.85025"/><trkpt lat="54.62644" lon="-99.83212"/><trkpt lat="54.60515" lon="-99.78222"/><trkpt lat="54.60317" lon="-99.77608"/><trkpt lat="54.60247" lon="-99.77141"/><trkpt lat="54.59259" lon="-99.66321"/><trkpt lat="54.57929" lon="-99.58135"/><trkpt lat="54.57917" lon="-99.57712"/><trkpt lat="54.58842" lon="-99.54026"/><trkpt lat="54.59473" lon="-99.42236"/><trkpt lat="54.59610" lon="-99.41835"/><trkpt lat="54.59710" lon="-99.41707"/><trkpt lat="54.62021" lon="-99.39219"/><trkpt lat="54.62154" lon="-99.38960"/><trkpt lat="54.63476" lon="-99.31099"/><trkpt lat="54.68149" lon="-99.11951"/><trkpt lat="54.68857" lon="-99.04848"/><trkpt lat="54.69570" lon="-99.00987"/><trkpt lat="54.69376" lon="-98.94244"/><trkpt lat="54.69422" lon="-98.93839"/><trkpt lat="54.69837" lon="-98.91800"/><trkpt lat="54.69969" lon="-98.91408"/><trkpt lat="54.70174" lon="-98.91101"/><trkpt lat="54.82709" lon="-98.76928"/><trkpt lat="54.82859" lon="-98.76798"/><trkpt lat="54.84581" lon="-98.75616"/><trkpt lat="54.89849" lon="-98.69473"/><trkpt lat="54.90002" lon="-98.69377"/><trkpt lat="54.91098" lon="-98.69036"/><trkpt lat="54.91297" lon="-98.68892"/><trkpt lat="54.92270" lon="-98.67309"/><trkpt lat="54.93206" lon="-98.65643"/><trkpt lat="54.94345" lon="-98.64306"/><trkpt lat="54.95260" lon="-98.63457"/><trkpt lat="54.96964" lon="-98.60756"/><trkpt lat="54.98919" lon="-98.58636"/><trkpt lat="54.99641" lon="-98.58005"/><trkpt lat="54.99939" lon="-98.57785"/><trkpt lat="55.02699" lon="-98.55375"/><trkpt lat="55.02844" lon="-98.55174"/><trkpt lat="55.04445" lon="-98.52300"/><trkpt lat="55.05325" lon="-98.51246"/><trkpt lat="55.06535" lon="-98.49530"/><trkpt lat="55.07959" lon="-98.47855"/><trkpt lat="55.08185" lon="-98.47741"/><trkpt lat="55.11266" lon="-98.47624"/><trkpt lat="55.11513" lon="-98.47546"/><trkpt lat="55.11736" lon="-98.47340"/><trkpt lat="55.13518" lon="-98.45421"/><trkpt lat="55.13746" lon="-98.45273"/><trkpt lat="55.14729" lon="-98.44919"/><trkpt lat="55.14934" lon="-98.44734"/><trkpt lat="55.15496" lon="-98.44113"/><trkpt lat="55.15729" lon="-98.43981"/><trkpt lat="55.17414" lon="-98.43882"/><trkpt lat="55.17701" lon="-98.43785"/><trkpt lat="55.18948" lon="-98.42386"/><trkpt lat="55.19431" lon="-98.41950"/><trkpt lat="55.19991" lon="-98.41297"/><trkpt lat="55.20180" lon="-98.41131"/><trkpt lat="55.23761" lon="-98.39709"/><trkpt lat="55.24031" lon="-98.39637"/><trkpt lat="55.27238" lon="-98.39171"/><trkpt lat="55.27510" lon="-98.39030"/><trkpt lat="55.27736" lon="-98.38729"/><trkpt lat="55.28542" lon="-98.36727"/><trkpt lat="55.28760" lon="-98.36460"/><trkpt lat="55.29029" lon="-98.36338"/><trkpt lat="55.33125" lon="-98.35988"/><trkpt lat="55.33418" lon="-98.35935"/><trkpt lat="55.33543" lon="-98.35869"/><trkpt lat="55.36612" lon="-98.32262"/><trkpt lat="55.37336" lon="-98.31006"/><trkpt lat="55.38110" lon="-98.30081"/><trkpt lat="55.38764" lon="-98.29106"/><trkpt lat="55.39938" lon="-98.27576"/><trkpt lat="55.43311" lon="-98.23479"/><trkpt lat="55.43516" lon="-98.23134"/><trkpt lat="55.45166" lon="-98.19253"/><trkpt lat="55.47481" lon="-98.14381"/><trkpt lat="55.47695" lon="-98.14120"/><trkpt lat="55.50598" lon="-98.11261"/><trkpt lat="55.50823" lon="-98.10991"/><trkpt lat="55.50997" lon="-98.10648"/><trkpt lat="55.52744" lon="-98.06545"/><trkpt lat="55.52949" lon="-98.06236"/><trkpt lat="55.54142" lon="-98.04873"/><trkpt lat="55.55758" lon="-98.01966"/><trkpt lat="55.56050" lon="-98.01552"/><trkpt lat="55.58310" lon="-97.98844"/><trkpt lat="55.60314" lon="-97.96954"/><trkpt lat="55.60470" lon="-97.96844"/><trkpt lat="55.62792" lon="-97.95578"/><trkpt lat="55.62971" lon="-97.95419"/><trkpt lat="55.64108" lon="-97.94049"/><trkpt lat="55.64301" lon="-97.93896"/><trkpt lat="55.66912" lon="-97.92579"/><trkpt lat="55.67208" lon="-97.92377"/><trkpt lat="55.72327" lon="-97.87055"/><trkpt lat="55.72595" lon="-97.86721"/><trkpt lat="55.73681" lon="-97.85006"/><trkpt lat="55.73847" lon="-97.84933"/><trkpt lat="55.74470" lon="-97.85074"/><trkpt lat="55.74573" lon="-97.85059"/><trkpt lat="55.74682" lon="-97.84992"/><trkpt lat="55.75218" lon="-97.84457"/><trkpt lat="55.75464" lon="-97.84006"/><trkpt lat="55.75841" lon="-97.83560"/><trkpt lat="55.75805" lon="-97.83457"/><trkpt lat="55.75724" lon="-97.83518"/><trkpt lat="55.75703" lon="-97.83446"/><trkpt lat="55.75638" lon="-97.83454"/></trkseg>
<trkseg><trkpt lat="55.75638" lon="-97.83454"/><trkpt lat="55.75703" lon="-97.83446"/><trkpt lat="55.75724" lon="-97.83518"/><trkpt lat="55.75805" lon="-97.83457"/><trkpt lat="55.75841" lon="-97.83560"/><trkpt lat="55.75464" lon="-97.84006"/><trkpt lat="55.75218" lon="-97.84457"/><trkpt lat="55.75005" lon="-97.84652"/><trkpt lat="55.74696" lon="-97.85005"/><trkpt lat="55.74583" lon="-97.85078"/><trkpt lat="55.74459" lon="-97.85096"/><trkpt lat="55.73843" lon="-97.84959"/><trkpt lat="55.73752" lon="-97.84981"/><trkpt lat="55.73677" lon="-97.85040"/><trkpt lat="55.72590" lon="-97.86771"/><trkpt lat="55.72405" lon="-97.86997"/><trkpt lat="55.67208" lon="-97.92377"/><trkpt lat="55.66912" lon="-97.92579"/><trkpt lat="55.64301" lon="-97.93896"/><trkpt lat="55.64108" lon="-97.94049"/><trkpt lat="55.62971" lon="-97.95419"/><trkpt lat="55.62792" lon="-97.95578"/><trkpt lat="55.60470" lon="-97.96844"/><trkpt lat="55.60314" lon="-97.96954"/><trkpt lat="55.58310" lon="-97.98844"/><trkpt lat="55.56050" lon="-98.01552"/><trkpt lat="55.55758" lon="-98.01966"/><trkpt lat="55.54142" lon="-98.04873"/><trkpt lat="55.52949" lon="-98.06236"/><trkpt lat="55.52744" lon="-98.06545"/><trkpt lat="55.50997" lon="-98.10648"/><trkpt lat="55.50823" lon="-98.10991"/><trkpt lat="55.50598" lon="-98.11261"/><trkpt lat="55.47695" lon="-98.14120"/><trkpt lat="55.47481" lon="-98.14381"/><trkpt lat="55.45166" lon="-98.19253"/><trkpt lat="55.43516" lon="-98.23134"/><trkpt lat="55.43311" lon="-98.23479"/><trkpt lat="55.39938" lon="-98.27576"/><trkpt lat="55.38764" lon="-98.29106"/><trkpt lat="55.38110" lon="-98.30081"/><trkpt lat="55.37336" lon="-98.31006"/><trkpt lat="55.36612" lon="-98.32262"/><trkpt lat="55.33543" lon="-98.35869"/><trkpt lat="55.33418" lon="-98.35935"/><trkpt lat="55.33125" lon="-98.35988"/><trkpt lat="55.29029" lon="-98.36338"/><trkpt lat="55.28760" lon="-98.36460"/><trkpt lat="55.28542" lon="-98.36727"/><trkpt lat="55.27736" lon="-98.38729"/><trkpt lat="55.27510" lon="-98.39030"/><trkpt lat="55.27238" lon="-98.39171"/><trkpt lat="55.24031" lon="-98.39637"/><trkpt lat="55.23761" lon="-98.39709"/><trkpt lat="55.20180" lon="-98.41131"/><trkpt lat="55.19991" lon="-98.41297"/><trkpt lat="55.19431" lon="-98.41950"/><trkpt lat="55.18948" lon="-98.42386"/><trkpt lat="55.17701" lon="-98.43785"/><trkpt lat="55.17414" lon="-98.43882"/><trkpt lat="55.15729" lon="-98.43981"/><trkpt lat="55.15496" lon="-98.44113"/><trkpt lat="55.14934" lon="-98.44734"/><trkpt lat="55.14729" lon="-98.44919"/><trkpt lat="55.13746" lon="-98.45273"/><trkpt lat="55.13518" lon="-98.45421"/><trkpt lat="55.11736" lon="-98.47340"/><trkpt lat="55.11513" lon="-98.47546"/><trkpt lat="55.11266" lon="-98.47624"/><trkpt lat="55.08185" lon="-98.47741"/><trkpt lat="55.07959" lon="-98.47855"/><trkpt lat="55.06535" lon="-98.49530"/><trkpt lat="55.05325" lon="-98.51246"/><trkpt lat="55.04445" lon="-98.52300"/><trkpt lat="55.02844" lon="-98.55174"/><trkpt lat="55.02699" lon="-98.55375"/><trkpt lat="54.99939" lon="-98.57785"/><trkpt lat="54.99641" lon="-98.58005"/><trkpt lat="54.98919" lon="-98.58636"/><trkpt lat="54.96964" lon="-98.60756"/><trkpt lat="54.95260" lon="-98.63457"/><trkpt lat="54.94345" lon="-98.64306"/><trkpt lat="54.93206" lon="-98.65643"/><trkpt lat="54.92270" lon="-98.67309"/><trkpt lat="54.91297" lon="-98.68892"/><trkpt lat="54.91098" lon="-98.69036"/><trkpt lat="54.90002" lon="-98.69377"/><trkpt lat="54.89849" lon="-98.69473"/><trkpt lat="54.84581" lon="-98.75616"/><trkpt lat="54.82859" lon="-98.76798"/><trkpt lat="54.82709" lon="-98.76928"/><trkpt lat="54.70174" lon="-98.91101"/><trkpt lat="54.69969" lon="-98.91408"/><trkpt lat="54.69837" lon="-98.91800"/><trkpt lat="54.69422" lon="-98.93839"/><trkpt lat="54.69376" lon="-98.94244"/><trkpt lat="54.69570" lon="-99.00987"/><trkpt lat="54.68857" lon="-99.04848"/><trkpt lat="54.68149" lon="-99.11951"/><trkpt lat="54.67199" lon="-99.15875"/><trkpt lat="54.66979" lon="-99.15675"/><trkpt lat="54.66361" lon="-99.14869"/><trkpt lat="54.65985" lon="-99.14333"/><trkpt lat="54.65811" lon="-99.14004"/><trkpt lat="54.64563" lon="-99.10609"/><trkpt lat="54.64435" lon="-99.10367"/><trkpt lat="54.64233" lon="-99.10174"/><trkpt lat="54.64089" lon="-99.10116"/><trkpt lat="54.59857" lon="-99.09680"/><trkpt lat="54.59334" lon="-99.09596"/><trkpt lat="54.51179" lon="-99.03764"/><trkpt lat="54.50724" lon="-99.03754"/><trkpt lat="54.45489" lon="-99.03934"/><trkpt lat="54.40318" lon="-99.06530"/><trkpt lat="54.40168" lon="-99.06633"/><trkpt lat="54.37989" lon="-99.08579"/><trkpt lat="54.37599" lon="-99.09103"/><trkpt lat="54.36587" lon="-99.10082"/><trkpt lat="54.36453" lon="-99.10191"/><trkpt lat="54.36302" lon="-99.10255"/><trkpt lat="54.35964" lon="-99.10280"/><trkpt lat="54.35826" lon="-99.10328"/><trkpt lat="54.35046" lon="-99.10909"/><trkpt lat="54.34536" lon="-99.11627"/><trkpt lat="54.32788" lon="-99.13178"/><trkpt lat="54.21742" lon="-99.17005"/><trkpt lat="54.21563" lon="-99.17026"/><trkpt lat="54.20403" lon="-99.16878"/><trkpt lat="54.20290" lon="-99.16917"/><trkpt lat="54.19273" lon="-99.17512"/><trkpt lat="54.19150" lon="-99.17546"/><trkpt lat="54.19003" lon="-99.17520"/><trkpt lat="54.18887" lon="-99.17444"/><trkpt lat="54.18031" lon="-99.16568"/><trkpt lat="54.17898" lon="-99.16488"/><trkpt lat="54.12342" lon="-99.15650"/><trkpt lat="54.06521" lon="-99.16331"/><trkpt lat="53.99663" lon="-99.19628"/><trkpt lat="53.84031" lon="-99.25223"/><trkpt lat="53.71590" lon="-99.33433"/><trkpt lat="53.71366" lon="-99.33537"/><trkpt lat="53.56060" lon="-99.34311"/><trkpt lat="53.33010" lon="-99.34120"/><trkpt lat="53.25927" lon="-99.33018"/><trkpt lat="53.25773" lon="-99.32893"/><trkpt lat="53.25627" lon="-99.32683"/><trkpt lat="53.25601" lon="-99.32749"/><trkpt lat="53.25719" lon="-99.32992"/><trkpt lat="53.25674" lon="-99.40247"/><trkpt lat="53.25161" lon="-99.40250"/><trkpt lat="53.25101" lon="-99.40320"/><trkpt lat="53.25926" lon="-99.41385"/></trkseg>
<trkseg><trkpt lat="53.25926" lon="-99.41385"/><trkpt lat="53.25101" lon="-99.40320"/><trkpt lat="53.25161" lon="-99.40250"/><trkpt lat="53.25674" lon="-99.40247"/><trkpt lat="53.25709" lon="-99.32943"/><trkpt lat="53.25601" lon="-99.32749"/><trkpt lat="53.25627" lon="-99.32683"/><trkpt lat="53.23063" lon="-99.28973"/><trkpt lat="53.22925" lon="-99.28911"/><trkpt lat="53.22783" lon="-99.28929"/><trkpt lat="53.18994" lon="-99.29996"/><trkpt lat="53.18860" lon="-99.29998"/><trkpt lat="53.18740" lon="-99.29932"/><trkpt lat="53.18643" lon="-99.29811"/><trkpt lat="53.18539" lon="-99.29489"/><trkpt lat="53.18404" lon="-99.26764"/><trkpt lat="53.17953" lon="-99.25853"/><trkpt lat="53.17797" lon="-99.25678"/><trkpt lat="53.17642" lon="-99.25659"/><trkpt lat="53.14038" lon="-99.26161"/><trkpt lat="53.13824" lon="-99.26148"/><trkpt lat="53.13535" lon="-99.25930"/><trkpt lat="53.13080" lon="-99.25507"/><trkpt lat="53.12931" lon="-99.25417"/><trkpt lat="53.11683" lon="-99.25397"/><trkpt lat="53.11549" lon="-99.25347"/><trkpt lat="53.09487" lon="-99.23504"/><trkpt lat="53.09212" lon="-99.23390"/><trkpt lat="53.05138" lon="-99.22211"/><trkpt lat="53.04911" lon="-99.22233"/><trkpt lat="53.03427" lon="-99.22696"/><trkpt lat="53.03207" lon="-99.22656"/><trkpt lat="53.03063" lon="-99.22533"/><trkpt lat="53.02951" lon="-99.22347"/><trkpt lat="53.00368" lon="-99.16653"/><trkpt lat="53.00240" lon="-99.16481"/><trkpt lat="53.00086" lon="-99.16382"/><trkpt lat="52.98576" lon="-99.16154"/><trkpt lat="52.98386" lon="-99.16162"/><trkpt lat="52.98171" lon="-99.16276"/><trkpt lat="52.96772" lon="-99.17610"/><trkpt lat="52.96605" lon="-99.17722"/><trkpt lat="52.92208" lon="-99.18528"/><trkpt lat="52.91978" lon="-99.18455"/><trkpt lat="52.91848" lon="-99.18323"/><trkpt lat="52.91750" lon="-99.18128"/><trkpt lat="52.90283" lon="-99.13905"/><trkpt lat="52.90154" lon="-99.13662"/><trkpt lat="52.90043" lon="-99.13554"/><trkpt lat="52.86924" lon="-99.11502"/><trkpt lat="52.86841" lon="-99.11410"/><trkpt lat="52.86725" lon="-99.11182"/><trkpt lat="52.86662" lon="-99.10922"/><trkpt lat="52.86652" lon="-99.10705"/><trkpt lat="52.86957" lon="-99.03944"/><trkpt lat="52.86898" lon="-99.03540"/><trkpt lat="52.86832" lon="-99.03378"/><trkpt lat="52.86721" lon="-99.03217"/><trkpt lat="52.86615" lon="-99.03127"/><trkpt lat="52.73287" lon="-98.95708"/><trkpt lat="52.73057" lon="-98.95652"/><trkpt lat="52.69295" lon="-98.95441"/><trkpt lat="52.69056" lon="-98.95401"/><trkpt lat="52.58677" lon="-98.88829"/><trkpt lat="52.58473" lon="-98.88725"/><trkpt lat="52.58316" lon="-98.88701"/><trkpt lat="52.54613" lon="-98.88551"/><trkpt lat="52.52712" lon="-98.88395"/><trkpt lat="52.47134" lon="-98.88259"/><trkpt lat="52.46943" lon="-98.88334"/><trkpt lat="52.41847" lon="-98.91207"/><trkpt lat="52.41556" lon="-98.91308"/><trkpt lat="52.39737" lon="-98.90967"/><trkpt lat="52.38625" lon="-98.90482"/><trkpt lat="52.38007" lon="-98.90400"/><trkpt lat="52.37212" lon="-98.90140"/><trkpt lat="52.36094" lon="-98.89282"/><trkpt lat="52.35859" lon="-98.89159"/><trkpt lat="52.34579" lon="-98.89130"/><trkpt lat="52.34413" lon="-98.89183"/><trkpt lat="52.34244" lon="-98.89345"/><trkpt lat="52.33664" lon="-98.90728"/><trkpt lat="52.33562" lon="-98.90897"/><trkpt lat="52.33389" lon="-98.91040"/><trkpt lat="52.33251" lon="-98.91076"/><trkpt lat="52.29498" lon="-98.91092"/><trkpt lat="52.29295" lon="-98.91115"/><trkpt lat="52.26610" lon="-98.92810"/><trkpt lat="52.26460" lon="-98.92869"/><trkpt lat="52.26328" lon="-98.92863"/><trkpt lat="52.26141" lon="-98.92751"/><trkpt lat="52.20272" lon="-98.87416"/><trkpt lat="52.20047" lon="-98.87240"/><trkpt lat="52.13279" lon="-98.84774"/><trkpt lat="52.13113" lon="-98.84783"/><trkpt lat="52.12259" lon="-98.85149"/><trkpt lat="52.12072" lon="-98.85170"/><trkpt lat="52.05116" lon="-98.82454"/><trkpt lat="52.04926" lon="-98.82437"/><trkpt lat="52.00806" lon="-98.84071"/><trkpt lat="52.00614" lon="-98.84095"/><trkpt lat="51.93093" lon="-98.81788"/><trkpt lat="51.90226" lon="-98.81618"/><trkpt lat="51.90016" lon="-98.81497"/><trkpt lat="51.89921" lon="-98.81401"/><trkpt lat="51.89762" lon="-98.81150"/><trkpt lat="51.89575" lon="-98.80619"/><trkpt lat="51.88976" lon="-98.78570"/><trkpt lat="51.88854" lon="-98.78318"/><trkpt lat="51.88731" lon="-98.78189"/><trkpt lat="51.81410" lon="-98.74724"/><trkpt lat="51.81172" lon="-98.74567"/><trkpt lat="51.80339" lon="-98.73706"/><trkpt lat="51.80101" lon="-98.73578"/><trkpt lat="51.79955" lon="-98.73553"/><trkpt lat="51.71227" lon="-98.73527"/><trkpt lat="51.62327" lon="-98.73533"/><trkpt lat="51.62022" lon="-98.73559"/><trkpt lat="51.61152" lon="-98.73758"/><trkpt lat="51.59944" lon="-98.73762"/><trkpt lat="51.59781" lon="-98.73732"/><trkpt lat="51.59631" lon="-98.73626"/><trkpt lat="51.58273" lon="-98.72289"/><trkpt lat="51.58118" lon="-98.72042"/><trkpt lat="51.56896" lon="-98.66733"/><trkpt lat="51.56754" lon="-98.66380"/><trkpt lat="51.51025" lon="-98.60356"/><trkpt lat="51.50746" lon="-98.60129"/><trkpt lat="51.50083" lon="-98.59437"/><trkpt lat="51.49659" lon="-98.58921"/><trkpt lat="51.46141" lon="-98.55252"/><trkpt lat="51.41203" lon="-98.51518"/><trkpt lat="51.39822" lon="-98.50377"/><trkpt lat="51.39088" lon="-98.49831"/><trkpt lat="51.38298" lon="-98.49328"/><trkpt lat="51.29751" lon="-98.42904"/><trkpt lat="51.29504" lon="-98.42723"/><trkpt lat="51.29308" lon="-98.42624"/><trkpt lat="51.28740" lon="-98.42206"/><trkpt lat="51.28480" lon="-98.41932"/><trkpt lat="51.19324" lon="-98.35089"/><trkpt lat="51.19115" lon="-98.35013"/><trkpt lat="51.17004" lon="-98.35009"/><trkpt lat="51.16800" lon="-98.34926"/><trkpt lat="51.16665" lon="-98.34773"/><trkpt lat="51.16564" lon="-98.34554"/><trkpt lat="51.16119" lon="-98.32869"/><trkpt lat="51.16027" lon="-98.32684"/><trkpt lat="51.15905" lon="-98.32546"/><trkpt lat="51.08680" lon="-98.27175"/><trkpt lat="51.08548" lon="-98.27113"/><trkpt lat="51.08222" lon="-98.27050"/><trkpt lat="51.07094" lon="-98.26221"/><trkpt lat="51.06656" lon="-98.25894"/><trkpt lat="51.06314" lon="-98.25427"/><trkpt lat="51.05132" lon="-98.24549"/><trkpt lat="51.04888" lon="-98.24477"/><trkpt lat="51.04078" lon="-98.24479"/><trkpt lat="51.03817" lon="-98.24448"/><trkpt lat="51.03600" lon="-98.24253"/><trkpt lat="51.03131" lon="-98.23227"/><trkpt lat="51.02959" lon="-98.22951"/><trkpt lat="50.97303" lon="-98.18761"/><trkpt lat="50.96825" lon="-98.18572"/><trkpt lat="50.96327" lon="-98.18209"/><trkpt lat="50.95928" lon="-98.17752"/><trkpt lat="50.95238" lon="-98.17231"/><trkpt lat="50.93801" lon="-98.15905"/><trkpt lat="50.93609" lon="-98.15852"/><trkpt lat="50.90935" lon="-98.15846"/><trkpt lat="50.90833" lon="-98.15831"/><trkpt lat="50.90687" lon="-98.15752"/><trkpt lat="50.90522" lon="-98.15561"/><trkpt lat="50.89452" lon="-98.13921"/><trkpt lat="50.87648" lon="-98.11628"/><trkpt lat="50.87047" lon="-98.11169"/><trkpt lat="50.85825" lon="-98.11133"/><trkpt lat="50.85616" lon="-98.11049"/><trkpt lat="50.85424" lon="-98.10794"/><trkpt lat="50.84983" lon="-98.09582"/><trkpt lat="50.84810" lon="-98.09345"/><trkpt lat="50.81282" lon="-98.06526"/><trkpt lat="50.81085" lon="-98.06449"/><trkpt lat="50.80617" lon="-98.06452"/><trkpt lat="50.80433" lon="-98.06362"/><trkpt lat="50.78175" lon="-98.04241"/><trkpt lat="50.77957" lon="-98.04154"/><trkpt lat="50.77391" lon="-98.04146"/><trkpt lat="50.59960" lon="-98.04190"/><trkpt lat="50.59855" lon="-98.04159"/><trkpt lat="50.59710" lon="-98.04049"/><trkpt lat="50.59594" lon="-98.03876"/><trkpt lat="50.59515" lon="-98.03655"/><trkpt lat="50.59485" lon="-98.03408"/><trkpt lat="50.59488" lon="-98.02368"/><trkpt lat="50.59408" lon="-98.01954"/><trkpt lat="50.59225" lon="-98.01635"/><trkpt lat="50.59078" lon="-98.01514"/><trkpt lat="50.58972" lon="-98.01469"/><trkpt lat="50.49436" lon="-98.01429"/><trkpt lat="50.49292" lon="-98.01401"/><trkpt lat="50.49197" lon="-98.01347"/><trkpt lat="50.49002" lon="-98.01089"/><trkpt lat="50.48834" lon="-98.00497"/><trkpt lat="50.48738" lon="-98.00311"/><trkpt lat="50.44887" lon="-97.94592"/><trkpt lat="50.44792" lon="-97.94489"/><trkpt lat="50.44554" lon="-97.94356"/><trkpt lat="50.42650" lon="-97.94128"/><trkpt lat="50.41554" lon="-97.94163"/><trkpt lat="50.41464" lon="-97.94159"/><trkpt lat="50.41347" lon="-97.94091"/><trkpt lat="50.41246" lon="-97.93946"/><trkpt lat="50.41143" lon="-97.93655"/><trkpt lat="50.40897" lon="-97.93342"/><trkpt lat="50.31529" lon="-97.82967"/><trkpt lat="50.30593" lon="-97.81521"/><trkpt lat="50.30288" lon="-97.81104"/><trkpt lat="50.30009" lon="-97.80612"/><trkpt lat="50.25000" lon="-97.72851"/><trkpt lat="50.14402" lon="-97.56494"/><trkpt lat="50.14235" lon="-97.56320"/><trkpt lat="50.14093" lon="-97.56261"/><trkpt lat="50.12683" lon="-97.56257"/><trkpt lat="50.12536" lon="-97.56207"/><trkpt lat="50.12423" lon="-97.56099"/><trkpt lat="50.12334" lon="-97.55912"/><trkpt lat="50.12300" lon="-97.55737"/><trkpt lat="50.12296" lon="-97.53507"/><trkpt lat="50.12225" lon="-97.53185"/><trkpt lat="50.12148" lon="-97.53032"/><trkpt lat="50.07422" lon="-97.45771"/><trkpt lat="50.07293" lon="-97.45626"/><trkpt lat="50.06100" lon="-97.44717"/><trkpt lat="50.05967" lon="-97.44558"/><trkpt lat="50.05759" lon="-97.44133"/><trkpt lat="50.05524" lon="-97.43025"/><trkpt lat="50.05383" lon="-97.42658"/><trkpt lat="50.00151" lon="-97.34654"/><trkpt lat="50.00012" lon="-97.34493"/><trkpt lat="49.99884" lon="-97.34422"/><trkpt lat="49.99488" lon="-97.34401"/><trkpt lat="49.99354" lon="-97.34355"/><trkpt lat="49.99238" lon="-97.34260"/><trkpt lat="49.99137" lon="-97.34119"/><trkpt lat="49.99052" lon="-97.33902"/><trkpt lat="49.99014" lon="-97.33678"/><trkpt lat="49.99015" lon="-97.32693"/><trkpt lat="49.98959" lon="-97.31781"/><trkpt lat="49.98871" lon="-97.31415"/><trkpt lat="49.98685" lon="-97.30984"/><trkpt lat="49.98890" lon="-97.30555"/><trkpt lat="49.98956" lon="-97.30271"/><trkpt lat="49.98975" lon="-97.30022"/><trkpt lat="49.98965" lon="-97.11503"/><trkpt lat="49.98857" lon="-97.11096"/><trkpt lat="49.96673" lon="-97.06179"/><trkpt lat="49.95703" lon="-97.04207"/><trkpt lat="49.95283" lon="-97.03536"/><trkpt lat="49.95092" lon="-97.03364"/><trkpt lat="49.94916" lon="-97.03270"/><trkpt lat="49.94764" lon="-97.03243"/><trkpt lat="49.94536" lon="-97.03319"/><trkpt lat="49.94333" lon="-97.03469"/><trkpt lat="49.94321" lon="-97.03440"/><trkpt lat="49.94591" lon="-97.03246"/><trkpt lat="49.94753" lon="-97.03062"/><trkpt lat="49.94820" lon="-97.02763"/><trkpt lat="49.94817" lon="-97.02481"/><trkpt lat="49.94546" lon="-97.01603"/><trkpt lat="49.94004" lon="-97.00282"/><trkpt lat="49.93883" lon="-96.99787"/><trkpt lat="49.93663" lon="-96.98427"/><trkpt lat="49.93590" lon="-96.98196"/><trkpt lat="49.93450" lon="-96.97907"/><trkpt lat="49.93231" lon="-96.97642"/><trkpt lat="49.92995" lon="-96.97482"/><trkpt lat="49.90256" lon="-96.96022"/><trkpt lat="49.89889" lon="-96.95911"/><trkpt lat="49.83944" lon="-96.95919"/><trkpt lat="49.83768" lon="-96.96011"/><trkpt lat="49.82430" lon="-96.97348"/><trkpt lat="49.82279" lon="-96.97694"/><trkpt lat="49.82251" lon="-96.98127"/><trkpt lat="49.82673" lon="-96.98127"/><trkpt lat="49.82673" lon="-96.97805"/><trkpt lat="49.82709" lon="-96.97731"/><trkpt lat="49.82848" lon="-96.97758"/></trkseg>
</trk>
<trk><name>VIA Rail Thompson–Churchill (schematic)</name><trkseg><trkpt lat="55.7407" lon="-97.8300"/><trkpt lat="55.5900" lon="-97.1600"/><trkpt lat="56.0600" lon="-95.6500"/><trkpt lat="56.3500" lon="-94.7100"/><trkpt lat="56.5000" lon="-94.2000"/><trkpt lat="57.3700" lon="-94.1700"/><trkpt lat="58.7678" lon="-94.1746"/></trkseg></trk>
</gpx>
